ccn,facility_name,address,city,state_abbreviation,zip_code,state_county_code,county,state,fips,old_cbsa,old_cbsa_name,comparison_county_name,comparison_county_fips,comparison_county_cbsa_change,adjacent
"070015","NEW MILFORD HOSPITAL","21 ELM ST","NEW MILFORD","CT","06776","07020","LITCHFIELD","CT","09005","35644","New York-White Plains-Wayne, NY-NJ","Bergen County, New Jersey","34003","35614",0
"070015","NEW MILFORD HOSPITAL","21 ELM ST","NEW MILFORD","CT","06776","07020","LITCHFIELD","CT","09005","35644","New York-White Plains-Wayne, NY-NJ","Hudson County, New Jersey","34017","35614",0
"070015","NEW MILFORD HOSPITAL","21 ELM ST","NEW MILFORD","CT","06776","07020","LITCHFIELD","CT","09005","35644","New York-White Plains-Wayne, NY-NJ","Passaic County, New Jersey","34031","35614",0
"070015","NEW MILFORD HOSPITAL","21 ELM ST","NEW MILFORD","CT","06776","07020","LITCHFIELD","CT","09005","35644","New York-White Plains-Wayne, NY-NJ","Bronx County, New York","36005","35614",0
"070015","NEW MILFORD HOSPITAL","21 ELM ST","NEW MILFORD","CT","06776","07020","LITCHFIELD","CT","09005","35644","New York-White Plains-Wayne, NY-NJ","Kings County, New York","36047","35614",0
"070015","NEW MILFORD HOSPITAL","21 ELM ST","NEW MILFORD","CT","06776","07020","LITCHFIELD","CT","09005","35644","New York-White Plains-Wayne, NY-NJ","New York County, New York","36061","35614",0
"070015","NEW MILFORD HOSPITAL","21 ELM ST","NEW MILFORD","CT","06776","07020","LITCHFIELD","CT","09005","35644","New York-White Plains-Wayne, NY-NJ","Putnam County, New York","36079","20524",0
"070015","NEW MILFORD HOSPITAL","21 ELM ST","NEW MILFORD","CT","06776","07020","LITCHFIELD","CT","09005","35644","New York-White Plains-Wayne, NY-NJ","Queens County, New York","36081","35614",0
"070015","NEW MILFORD HOSPITAL","21 ELM ST","NEW MILFORD","CT","06776","07020","LITCHFIELD","CT","09005","35644","New York-White Plains-Wayne, NY-NJ","Richmond County, New York","36085","35614",0
"070015","NEW MILFORD HOSPITAL","21 ELM ST","NEW MILFORD","CT","06776","07020","LITCHFIELD","CT","09005","35644","New York-White Plains-Wayne, NY-NJ","Rockland County, New York","36087","35614",0
"070015","NEW MILFORD HOSPITAL","21 ELM ST","NEW MILFORD","CT","06776","07020","LITCHFIELD","CT","09005","35644","New York-White Plains-Wayne, NY-NJ","Westchester County, New York","36119","35614",0
"140155","PRESENCE ST MARYS HOSPITAL","500 W COURT ST","KANKAKEE","IL","60901","14540","KANKAKEE","IL","17091","16974","Chicago-Joliet-Naperville, IL","Cook County, Illinois","17031","same",0
"140186","RIVERSIDE MEDICAL CENTER","350 N WALL ST","KANKAKEE","IL","60901","14540","KANKAKEE","IL","17091","16974","Chicago-Joliet-Naperville, IL","Cook County, Illinois","17031","same",0
"140155","PRESENCE ST MARYS HOSPITAL","500 W COURT ST","KANKAKEE","IL","60901","14540","KANKAKEE","IL","17091","16974","Chicago-Joliet-Naperville, IL","DeKalb County, Illinois","17037","20994",0
"140186","RIVERSIDE MEDICAL CENTER","350 N WALL ST","KANKAKEE","IL","60901","14540","KANKAKEE","IL","17091","16974","Chicago-Joliet-Naperville, IL","DeKalb County, Illinois","17037","20994",0
"140155","PRESENCE ST MARYS HOSPITAL","500 W COURT ST","KANKAKEE","IL","60901","14540","KANKAKEE","IL","17091","16974","Chicago-Joliet-Naperville, IL","DuPage County, Illinois","17043","same",0
"140186","RIVERSIDE MEDICAL CENTER","350 N WALL ST","KANKAKEE","IL","60901","14540","KANKAKEE","IL","17091","16974","Chicago-Joliet-Naperville, IL","DuPage County, Illinois","17043","same",0
"140155","PRESENCE ST MARYS HOSPITAL","500 W COURT ST","KANKAKEE","IL","60901","14540","KANKAKEE","IL","17091","16974","Chicago-Joliet-Naperville, IL","Grundy County, Illinois","17063","same",1
"140186","RIVERSIDE MEDICAL CENTER","350 N WALL ST","KANKAKEE","IL","60901","14540","KANKAKEE","IL","17091","16974","Chicago-Joliet-Naperville, IL","Grundy County, Illinois","17063","same",1
"140155","PRESENCE ST MARYS HOSPITAL","500 W COURT ST","KANKAKEE","IL","60901","14540","KANKAKEE","IL","17091","16974","Chicago-Joliet-Naperville, IL","Kane County, Illinois","17089","20994",0
"140186","RIVERSIDE MEDICAL CENTER","350 N WALL ST","KANKAKEE","IL","60901","14540","KANKAKEE","IL","17091","16974","Chicago-Joliet-Naperville, IL","Kane County, Illinois","17089","20994",0
"140155","PRESENCE ST MARYS HOSPITAL","500 W COURT ST","KANKAKEE","IL","60901","14540","KANKAKEE","IL","17091","16974","Chicago-Joliet-Naperville, IL","Kendall County, Illinois","17093","same",0
"140186","RIVERSIDE MEDICAL CENTER","350 N WALL ST","KANKAKEE","IL","60901","14540","KANKAKEE","IL","17091","16974","Chicago-Joliet-Naperville, IL","Kendall County, Illinois","17093","same",0
"140155","PRESENCE ST MARYS HOSPITAL","500 W COURT ST","KANKAKEE","IL","60901","14540","KANKAKEE","IL","17091","16974","Chicago-Joliet-Naperville, IL","McHenry County, Illinois","17111","same",0
"140186","RIVERSIDE MEDICAL CENTER","350 N WALL ST","KANKAKEE","IL","60901","14540","KANKAKEE","IL","17091","16974","Chicago-Joliet-Naperville, IL","McHenry County, Illinois","17111","same",0
"140155","PRESENCE ST MARYS HOSPITAL","500 W COURT ST","KANKAKEE","IL","60901","14540","KANKAKEE","IL","17091","16974","Chicago-Joliet-Naperville, IL","Will County, Illinois","17197","same",1
"140186","RIVERSIDE MEDICAL CENTER","350 N WALL ST","KANKAKEE","IL","60901","14540","KANKAKEE","IL","17091","16974","Chicago-Joliet-Naperville, IL","Will County, Illinois","17197","same",1
"140110","OTTAWA REGIONAL HOSPITAL & HEALTHCARE CENTER","1100 EAST NORRIS DRIVE","OTTAWA","IL","61350","14580","LA SALLE","IL","17099","16974","Chicago-Joliet-Naperville, IL","Cook County, Illinois","17031","same",0
"140110","OTTAWA REGIONAL HOSPITAL & HEALTHCARE CENTER","1100 EAST NORRIS DRIVE","OTTAWA","IL","61350","14580","LA SALLE","IL","17099","16974","Chicago-Joliet-Naperville, IL","DeKalb County, Illinois","17037","20994",1
"140110","OTTAWA REGIONAL HOSPITAL & HEALTHCARE CENTER","1100 EAST NORRIS DRIVE","OTTAWA","IL","61350","14580","LA SALLE","IL","17099","16974","Chicago-Joliet-Naperville, IL","DuPage County, Illinois","17043","same",0
"140110","OTTAWA REGIONAL HOSPITAL & HEALTHCARE CENTER","1100 EAST NORRIS DRIVE","OTTAWA","IL","61350","14580","LA SALLE","IL","17099","16974","Chicago-Joliet-Naperville, IL","Grundy County, Illinois","17063","same",1
"140110","OTTAWA REGIONAL HOSPITAL & HEALTHCARE CENTER","1100 EAST NORRIS DRIVE","OTTAWA","IL","61350","14580","LA SALLE","IL","17099","16974","Chicago-Joliet-Naperville, IL","Kane County, Illinois","17089","20994",0
"140110","OTTAWA REGIONAL HOSPITAL & HEALTHCARE CENTER","1100 EAST NORRIS DRIVE","OTTAWA","IL","61350","14580","LA SALLE","IL","17099","16974","Chicago-Joliet-Naperville, IL","Kendall County, Illinois","17093","same",1
"140110","OTTAWA REGIONAL HOSPITAL & HEALTHCARE CENTER","1100 EAST NORRIS DRIVE","OTTAWA","IL","61350","14580","LA SALLE","IL","17099","16974","Chicago-Joliet-Naperville, IL","McHenry County, Illinois","17111","same",0
"140110","OTTAWA REGIONAL HOSPITAL & HEALTHCARE CENTER","1100 EAST NORRIS DRIVE","OTTAWA","IL","61350","14580","LA SALLE","IL","17099","16974","Chicago-Joliet-Naperville, IL","Will County, Illinois","17197","same",0
"140012","KATHERINE SHAW BETHEA HOSPITAL","403 E 1ST ST","DIXON","IL","61021","14600","LEE","IL","17103","16974","Chicago-Joliet-Naperville, IL","Cook County, Illinois","17031","same",0
"140012","KATHERINE SHAW BETHEA HOSPITAL","403 E 1ST ST","DIXON","IL","61021","14600","LEE","IL","17103","16974","Chicago-Joliet-Naperville, IL","DeKalb County, Illinois","17037","20994",1
"140012","KATHERINE SHAW BETHEA HOSPITAL","403 E 1ST ST","DIXON","IL","61021","14600","LEE","IL","17103","16974","Chicago-Joliet-Naperville, IL","DuPage County, Illinois","17043","same",0
"140012","KATHERINE SHAW BETHEA HOSPITAL","403 E 1ST ST","DIXON","IL","61021","14600","LEE","IL","17103","16974","Chicago-Joliet-Naperville, IL","Grundy County, Illinois","17063","same",0
"140012","KATHERINE SHAW BETHEA HOSPITAL","403 E 1ST ST","DIXON","IL","61021","14600","LEE","IL","17103","16974","Chicago-Joliet-Naperville, IL","Kane County, Illinois","17089","20994",0
"140012","KATHERINE SHAW BETHEA HOSPITAL","403 E 1ST ST","DIXON","IL","61021","14600","LEE","IL","17103","16974","Chicago-Joliet-Naperville, IL","Kendall County, Illinois","17093","same",0
"140012","KATHERINE SHAW BETHEA HOSPITAL","403 E 1ST ST","DIXON","IL","61021","14600","LEE","IL","17103","16974","Chicago-Joliet-Naperville, IL","McHenry County, Illinois","17111","same",0
"140012","KATHERINE SHAW BETHEA HOSPITAL","403 E 1ST ST","DIXON","IL","61021","14600","LEE","IL","17103","16974","Chicago-Joliet-Naperville, IL","Will County, Illinois","17197","same",0
"140161","SAINT JAMES HOSPITAL","2500 WEST REYNOLDS STREET","PONTIAC","IL","61764","14610","LIVINGSTON","IL","17105","16974","Chicago-Joliet-Naperville, IL","Cook County, Illinois","17031","same",0
"140161","SAINT JAMES HOSPITAL","2500 WEST REYNOLDS STREET","PONTIAC","IL","61764","14610","LIVINGSTON","IL","17105","16974","Chicago-Joliet-Naperville, IL","DeKalb County, Illinois","17037","20994",0
"140161","SAINT JAMES HOSPITAL","2500 WEST REYNOLDS STREET","PONTIAC","IL","61764","14610","LIVINGSTON","IL","17105","16974","Chicago-Joliet-Naperville, IL","DuPage County, Illinois","17043","same",0
"140161","SAINT JAMES HOSPITAL","2500 WEST REYNOLDS STREET","PONTIAC","IL","61764","14610","LIVINGSTON","IL","17105","16974","Chicago-Joliet-Naperville, IL","Grundy County, Illinois","17063","same",1
"140161","SAINT JAMES HOSPITAL","2500 WEST REYNOLDS STREET","PONTIAC","IL","61764","14610","LIVINGSTON","IL","17105","16974","Chicago-Joliet-Naperville, IL","Kane County, Illinois","17089","20994",0
"140161","SAINT JAMES HOSPITAL","2500 WEST REYNOLDS STREET","PONTIAC","IL","61764","14610","LIVINGSTON","IL","17105","16974","Chicago-Joliet-Naperville, IL","Kendall County, Illinois","17093","same",0
"140161","SAINT JAMES HOSPITAL","2500 WEST REYNOLDS STREET","PONTIAC","IL","61764","14610","LIVINGSTON","IL","17105","16974","Chicago-Joliet-Naperville, IL","McHenry County, Illinois","17111","same",0
"140161","SAINT JAMES HOSPITAL","2500 WEST REYNOLDS STREET","PONTIAC","IL","61764","14610","LIVINGSTON","IL","17105","16974","Chicago-Joliet-Naperville, IL","Will County, Illinois","17197","same",0
"150002","METHODIST HOSPITALS INC","600 GRANT ST","GARY","IN","46402","15440","LAKE","IN","18089","16974","Chicago-Joliet-Naperville, IL","Cook County, Illinois","17031","same",1
"150004","FRANCISCAN ST MARGARET HEALTH - HAMMOND","5454 HOHMAN AVE","HAMMOND","IN","46320","15440","LAKE","IN","18089","16974","Chicago-Joliet-Naperville, IL","Cook County, Illinois","17031","same",1
"150008","ST CATHERINE HOSPITAL INC","4321 FIR ST","EAST CHICAGO","IN","46312","15440","LAKE","IN","18089","16974","Chicago-Joliet-Naperville, IL","Cook County, Illinois","17031","same",1
"150034","ST MARY MEDICAL CENTER INC","1500 S LAKE PARK AVE","HOBART","IN","46342","15440","LAKE","IN","18089","16974","Chicago-Joliet-Naperville, IL","Cook County, Illinois","17031","same",1
"150090","FRANCISCAN ST MARGARET HEALTH - DYER","24 JOLIET ST","DYER","IN","46311","15440","LAKE","IN","18089","16974","Chicago-Joliet-Naperville, IL","Cook County, Illinois","17031","same",1
"150125","COMMUNITY HOSPITAL","901 MACARTHUR BLVD","MUNSTER","IN","46321","15440","LAKE","IN","18089","16974","Chicago-Joliet-Naperville, IL","Cook County, Illinois","17031","same",1
"150126","FRANCISCAN ST ANTHONY HEALTH - CROWN POINT","1201 S MAIN ST","CROWN POINT","IN","46307","15440","LAKE","IN","18089","16974","Chicago-Joliet-Naperville, IL","Cook County, Illinois","17031","same",1
"150165","FRANCISCAN HEALTHCARE - MUNSTER","701 SUPERIOR AVE","MUNSTER","IN","46321","15440","LAKE","IN","18089","16974","Chicago-Joliet-Naperville, IL","Cook County, Illinois","17031","same",1
"150166","PINNACLE HOSPITAL","9301 CONNECTICUT DR","CROWN POINT","IN","46307","15440","LAKE","IN","18089","16974","Chicago-Joliet-Naperville, IL","Cook County, Illinois","17031","same",1
"150002","METHODIST HOSPITALS INC","600 GRANT ST","GARY","IN","46402","15440","LAKE","IN","18089","16974","Chicago-Joliet-Naperville, IL","DeKalb County, Illinois","17037","20994",0
"150004","FRANCISCAN ST MARGARET HEALTH - HAMMOND","5454 HOHMAN AVE","HAMMOND","IN","46320","15440","LAKE","IN","18089","16974","Chicago-Joliet-Naperville, IL","DeKalb County, Illinois","17037","20994",0
"150008","ST CATHERINE HOSPITAL INC","4321 FIR ST","EAST CHICAGO","IN","46312","15440","LAKE","IN","18089","16974","Chicago-Joliet-Naperville, IL","DeKalb County, Illinois","17037","20994",0
"150034","ST MARY MEDICAL CENTER INC","1500 S LAKE PARK AVE","HOBART","IN","46342","15440","LAKE","IN","18089","16974","Chicago-Joliet-Naperville, IL","DeKalb County, Illinois","17037","20994",0
"150090","FRANCISCAN ST MARGARET HEALTH - DYER","24 JOLIET ST","DYER","IN","46311","15440","LAKE","IN","18089","16974","Chicago-Joliet-Naperville, IL","DeKalb County, Illinois","17037","20994",0
"150125","COMMUNITY HOSPITAL","901 MACARTHUR BLVD","MUNSTER","IN","46321","15440","LAKE","IN","18089","16974","Chicago-Joliet-Naperville, IL","DeKalb County, Illinois","17037","20994",0
"150126","FRANCISCAN ST ANTHONY HEALTH - CROWN POINT","1201 S MAIN ST","CROWN POINT","IN","46307","15440","LAKE","IN","18089","16974","Chicago-Joliet-Naperville, IL","DeKalb County, Illinois","17037","20994",0
"150165","FRANCISCAN HEALTHCARE - MUNSTER","701 SUPERIOR AVE","MUNSTER","IN","46321","15440","LAKE","IN","18089","16974","Chicago-Joliet-Naperville, IL","DeKalb County, Illinois","17037","20994",0
"150166","PINNACLE HOSPITAL","9301 CONNECTICUT DR","CROWN POINT","IN","46307","15440","LAKE","IN","18089","16974","Chicago-Joliet-Naperville, IL","DeKalb County, Illinois","17037","20994",0
"150002","METHODIST HOSPITALS INC","600 GRANT ST","GARY","IN","46402","15440","LAKE","IN","18089","16974","Chicago-Joliet-Naperville, IL","DuPage County, Illinois","17043","same",0
"150004","FRANCISCAN ST MARGARET HEALTH - HAMMOND","5454 HOHMAN AVE","HAMMOND","IN","46320","15440","LAKE","IN","18089","16974","Chicago-Joliet-Naperville, IL","DuPage County, Illinois","17043","same",0
"150008","ST CATHERINE HOSPITAL INC","4321 FIR ST","EAST CHICAGO","IN","46312","15440","LAKE","IN","18089","16974","Chicago-Joliet-Naperville, IL","DuPage County, Illinois","17043","same",0
"150034","ST MARY MEDICAL CENTER INC","1500 S LAKE PARK AVE","HOBART","IN","46342","15440","LAKE","IN","18089","16974","Chicago-Joliet-Naperville, IL","DuPage County, Illinois","17043","same",0
"150090","FRANCISCAN ST MARGARET HEALTH - DYER","24 JOLIET ST","DYER","IN","46311","15440","LAKE","IN","18089","16974","Chicago-Joliet-Naperville, IL","DuPage County, Illinois","17043","same",0
"150125","COMMUNITY HOSPITAL","901 MACARTHUR BLVD","MUNSTER","IN","46321","15440","LAKE","IN","18089","16974","Chicago-Joliet-Naperville, IL","DuPage County, Illinois","17043","same",0
"150126","FRANCISCAN ST ANTHONY HEALTH - CROWN POINT","1201 S MAIN ST","CROWN POINT","IN","46307","15440","LAKE","IN","18089","16974","Chicago-Joliet-Naperville, IL","DuPage County, Illinois","17043","same",0
"150165","FRANCISCAN HEALTHCARE - MUNSTER","701 SUPERIOR AVE","MUNSTER","IN","46321","15440","LAKE","IN","18089","16974","Chicago-Joliet-Naperville, IL","DuPage County, Illinois","17043","same",0
"150166","PINNACLE HOSPITAL","9301 CONNECTICUT DR","CROWN POINT","IN","46307","15440","LAKE","IN","18089","16974","Chicago-Joliet-Naperville, IL","DuPage County, Illinois","17043","same",0
"150002","METHODIST HOSPITALS INC","600 GRANT ST","GARY","IN","46402","15440","LAKE","IN","18089","16974","Chicago-Joliet-Naperville, IL","Grundy County, Illinois","17063","same",0
"150004","FRANCISCAN ST MARGARET HEALTH - HAMMOND","5454 HOHMAN AVE","HAMMOND","IN","46320","15440","LAKE","IN","18089","16974","Chicago-Joliet-Naperville, IL","Grundy County, Illinois","17063","same",0
"150008","ST CATHERINE HOSPITAL INC","4321 FIR ST","EAST CHICAGO","IN","46312","15440","LAKE","IN","18089","16974","Chicago-Joliet-Naperville, IL","Grundy County, Illinois","17063","same",0
"150034","ST MARY MEDICAL CENTER INC","1500 S LAKE PARK AVE","HOBART","IN","46342","15440","LAKE","IN","18089","16974","Chicago-Joliet-Naperville, IL","Grundy County, Illinois","17063","same",0
"150090","FRANCISCAN ST MARGARET HEALTH - DYER","24 JOLIET ST","DYER","IN","46311","15440","LAKE","IN","18089","16974","Chicago-Joliet-Naperville, IL","Grundy County, Illinois","17063","same",0
"150125","COMMUNITY HOSPITAL","901 MACARTHUR BLVD","MUNSTER","IN","46321","15440","LAKE","IN","18089","16974","Chicago-Joliet-Naperville, IL","Grundy County, Illinois","17063","same",0
"150126","FRANCISCAN ST ANTHONY HEALTH - CROWN POINT","1201 S MAIN ST","CROWN POINT","IN","46307","15440","LAKE","IN","18089","16974","Chicago-Joliet-Naperville, IL","Grundy County, Illinois","17063","same",0
"150165","FRANCISCAN HEALTHCARE - MUNSTER","701 SUPERIOR AVE","MUNSTER","IN","46321","15440","LAKE","IN","18089","16974","Chicago-Joliet-Naperville, IL","Grundy County, Illinois","17063","same",0
"150166","PINNACLE HOSPITAL","9301 CONNECTICUT DR","CROWN POINT","IN","46307","15440","LAKE","IN","18089","16974","Chicago-Joliet-Naperville, IL","Grundy County, Illinois","17063","same",0
"150002","METHODIST HOSPITALS INC","600 GRANT ST","GARY","IN","46402","15440","LAKE","IN","18089","16974","Chicago-Joliet-Naperville, IL","Kane County, Illinois","17089","20994",0
"150004","FRANCISCAN ST MARGARET HEALTH - HAMMOND","5454 HOHMAN AVE","HAMMOND","IN","46320","15440","LAKE","IN","18089","16974","Chicago-Joliet-Naperville, IL","Kane County, Illinois","17089","20994",0
"150008","ST CATHERINE HOSPITAL INC","4321 FIR ST","EAST CHICAGO","IN","46312","15440","LAKE","IN","18089","16974","Chicago-Joliet-Naperville, IL","Kane County, Illinois","17089","20994",0
"150034","ST MARY MEDICAL CENTER INC","1500 S LAKE PARK AVE","HOBART","IN","46342","15440","LAKE","IN","18089","16974","Chicago-Joliet-Naperville, IL","Kane County, Illinois","17089","20994",0
"150090","FRANCISCAN ST MARGARET HEALTH - DYER","24 JOLIET ST","DYER","IN","46311","15440","LAKE","IN","18089","16974","Chicago-Joliet-Naperville, IL","Kane County, Illinois","17089","20994",0
"150125","COMMUNITY HOSPITAL","901 MACARTHUR BLVD","MUNSTER","IN","46321","15440","LAKE","IN","18089","16974","Chicago-Joliet-Naperville, IL","Kane County, Illinois","17089","20994",0
"150126","FRANCISCAN ST ANTHONY HEALTH - CROWN POINT","1201 S MAIN ST","CROWN POINT","IN","46307","15440","LAKE","IN","18089","16974","Chicago-Joliet-Naperville, IL","Kane County, Illinois","17089","20994",0
"150165","FRANCISCAN HEALTHCARE - MUNSTER","701 SUPERIOR AVE","MUNSTER","IN","46321","15440","LAKE","IN","18089","16974","Chicago-Joliet-Naperville, IL","Kane County, Illinois","17089","20994",0
"150166","PINNACLE HOSPITAL","9301 CONNECTICUT DR","CROWN POINT","IN","46307","15440","LAKE","IN","18089","16974","Chicago-Joliet-Naperville, IL","Kane County, Illinois","17089","20994",0
"150002","METHODIST HOSPITALS INC","600 GRANT ST","GARY","IN","46402","15440","LAKE","IN","18089","16974","Chicago-Joliet-Naperville, IL","Kendall County, Illinois","17093","same",0
"150004","FRANCISCAN ST MARGARET HEALTH - HAMMOND","5454 HOHMAN AVE","HAMMOND","IN","46320","15440","LAKE","IN","18089","16974","Chicago-Joliet-Naperville, IL","Kendall County, Illinois","17093","same",0
"150008","ST CATHERINE HOSPITAL INC","4321 FIR ST","EAST CHICAGO","IN","46312","15440","LAKE","IN","18089","16974","Chicago-Joliet-Naperville, IL","Kendall County, Illinois","17093","same",0
"150034","ST MARY MEDICAL CENTER INC","1500 S LAKE PARK AVE","HOBART","IN","46342","15440","LAKE","IN","18089","16974","Chicago-Joliet-Naperville, IL","Kendall County, Illinois","17093","same",0
"150090","FRANCISCAN ST MARGARET HEALTH - DYER","24 JOLIET ST","DYER","IN","46311","15440","LAKE","IN","18089","16974","Chicago-Joliet-Naperville, IL","Kendall County, Illinois","17093","same",0
"150125","COMMUNITY HOSPITAL","901 MACARTHUR BLVD","MUNSTER","IN","46321","15440","LAKE","IN","18089","16974","Chicago-Joliet-Naperville, IL","Kendall County, Illinois","17093","same",0
"150126","FRANCISCAN ST ANTHONY HEALTH - CROWN POINT","1201 S MAIN ST","CROWN POINT","IN","46307","15440","LAKE","IN","18089","16974","Chicago-Joliet-Naperville, IL","Kendall County, Illinois","17093","same",0
"150165","FRANCISCAN HEALTHCARE - MUNSTER","701 SUPERIOR AVE","MUNSTER","IN","46321","15440","LAKE","IN","18089","16974","Chicago-Joliet-Naperville, IL","Kendall County, Illinois","17093","same",0
"150166","PINNACLE HOSPITAL","9301 CONNECTICUT DR","CROWN POINT","IN","46307","15440","LAKE","IN","18089","16974","Chicago-Joliet-Naperville, IL","Kendall County, Illinois","17093","same",0
"150002","METHODIST HOSPITALS INC","600 GRANT ST","GARY","IN","46402","15440","LAKE","IN","18089","16974","Chicago-Joliet-Naperville, IL","McHenry County, Illinois","17111","same",0
"150004","FRANCISCAN ST MARGARET HEALTH - HAMMOND","5454 HOHMAN AVE","HAMMOND","IN","46320","15440","LAKE","IN","18089","16974","Chicago-Joliet-Naperville, IL","McHenry County, Illinois","17111","same",0
"150008","ST CATHERINE HOSPITAL INC","4321 FIR ST","EAST CHICAGO","IN","46312","15440","LAKE","IN","18089","16974","Chicago-Joliet-Naperville, IL","McHenry County, Illinois","17111","same",0
"150034","ST MARY MEDICAL CENTER INC","1500 S LAKE PARK AVE","HOBART","IN","46342","15440","LAKE","IN","18089","16974","Chicago-Joliet-Naperville, IL","McHenry County, Illinois","17111","same",0
"150090","FRANCISCAN ST MARGARET HEALTH - DYER","24 JOLIET ST","DYER","IN","46311","15440","LAKE","IN","18089","16974","Chicago-Joliet-Naperville, IL","McHenry County, Illinois","17111","same",0
"150125","COMMUNITY HOSPITAL","901 MACARTHUR BLVD","MUNSTER","IN","46321","15440","LAKE","IN","18089","16974","Chicago-Joliet-Naperville, IL","McHenry County, Illinois","17111","same",0
"150126","FRANCISCAN ST ANTHONY HEALTH - CROWN POINT","1201 S MAIN ST","CROWN POINT","IN","46307","15440","LAKE","IN","18089","16974","Chicago-Joliet-Naperville, IL","McHenry County, Illinois","17111","same",0
"150165","FRANCISCAN HEALTHCARE - MUNSTER","701 SUPERIOR AVE","MUNSTER","IN","46321","15440","LAKE","IN","18089","16974","Chicago-Joliet-Naperville, IL","McHenry County, Illinois","17111","same",0
"150166","PINNACLE HOSPITAL","9301 CONNECTICUT DR","CROWN POINT","IN","46307","15440","LAKE","IN","18089","16974","Chicago-Joliet-Naperville, IL","McHenry County, Illinois","17111","same",0
"150002","METHODIST HOSPITALS INC","600 GRANT ST","GARY","IN","46402","15440","LAKE","IN","18089","16974","Chicago-Joliet-Naperville, IL","Will County, Illinois","17197","same",1
"150004","FRANCISCAN ST MARGARET HEALTH - HAMMOND","5454 HOHMAN AVE","HAMMOND","IN","46320","15440","LAKE","IN","18089","16974","Chicago-Joliet-Naperville, IL","Will County, Illinois","17197","same",1
"150008","ST CATHERINE HOSPITAL INC","4321 FIR ST","EAST CHICAGO","IN","46312","15440","LAKE","IN","18089","16974","Chicago-Joliet-Naperville, IL","Will County, Illinois","17197","same",1
"150034","ST MARY MEDICAL CENTER INC","1500 S LAKE PARK AVE","HOBART","IN","46342","15440","LAKE","IN","18089","16974","Chicago-Joliet-Naperville, IL","Will County, Illinois","17197","same",1
"150090","FRANCISCAN ST MARGARET HEALTH - DYER","24 JOLIET ST","DYER","IN","46311","15440","LAKE","IN","18089","16974","Chicago-Joliet-Naperville, IL","Will County, Illinois","17197","same",1
"150125","COMMUNITY HOSPITAL","901 MACARTHUR BLVD","MUNSTER","IN","46321","15440","LAKE","IN","18089","16974","Chicago-Joliet-Naperville, IL","Will County, Illinois","17197","same",1
"150126","FRANCISCAN ST ANTHONY HEALTH - CROWN POINT","1201 S MAIN ST","CROWN POINT","IN","46307","15440","LAKE","IN","18089","16974","Chicago-Joliet-Naperville, IL","Will County, Illinois","17197","same",1
"150165","FRANCISCAN HEALTHCARE - MUNSTER","701 SUPERIOR AVE","MUNSTER","IN","46321","15440","LAKE","IN","18089","16974","Chicago-Joliet-Naperville, IL","Will County, Illinois","17197","same",1
"150166","PINNACLE HOSPITAL","9301 CONNECTICUT DR","CROWN POINT","IN","46307","15440","LAKE","IN","18089","16974","Chicago-Joliet-Naperville, IL","Will County, Illinois","17197","same",1
"180048","EPHRAIM MCDOWELL REGIONAL MEDICAL CENTER","217 SOUTH THIRD STREET","DANVILLE","KY","40422","18100","BOYLE","KY","21021","31140","Louisville/Jefferson County, KY-IN","Clark County, Indiana","18019","same",0
"180048","EPHRAIM MCDOWELL REGIONAL MEDICAL CENTER","217 SOUTH THIRD STREET","DANVILLE","KY","40422","18100","BOYLE","KY","21021","31140","Louisville/Jefferson County, KY-IN","Floyd County, Indiana","18043","same",0
"180048","EPHRAIM MCDOWELL REGIONAL MEDICAL CENTER","217 SOUTH THIRD STREET","DANVILLE","KY","40422","18100","BOYLE","KY","21021","31140","Louisville/Jefferson County, KY-IN","Harrison County, Indiana","18061","same",0
"180048","EPHRAIM MCDOWELL REGIONAL MEDICAL CENTER","217 SOUTH THIRD STREET","DANVILLE","KY","40422","18100","BOYLE","KY","21021","31140","Louisville/Jefferson County, KY-IN","Washington County, Indiana","18175","same",0
"180048","EPHRAIM MCDOWELL REGIONAL MEDICAL CENTER","217 SOUTH THIRD STREET","DANVILLE","KY","40422","18100","BOYLE","KY","21021","31140","Louisville/Jefferson County, KY-IN","Bullitt County, Kentucky","21029","same",0
"180048","EPHRAIM MCDOWELL REGIONAL MEDICAL CENTER","217 SOUTH THIRD STREET","DANVILLE","KY","40422","18100","BOYLE","KY","21021","31140","Louisville/Jefferson County, KY-IN","Henry County, Kentucky","21103","same",0
"180048","EPHRAIM MCDOWELL REGIONAL MEDICAL CENTER","217 SOUTH THIRD STREET","DANVILLE","KY","40422","18100","BOYLE","KY","21021","31140","Louisville/Jefferson County, KY-IN","Jefferson County, Kentucky","21111","same",0
"180048","EPHRAIM MCDOWELL REGIONAL MEDICAL CENTER","217 SOUTH THIRD STREET","DANVILLE","KY","40422","18100","BOYLE","KY","21021","31140","Louisville/Jefferson County, KY-IN","Meade County, Kentucky","21163","21060",0
"180048","EPHRAIM MCDOWELL REGIONAL MEDICAL CENTER","217 SOUTH THIRD STREET","DANVILLE","KY","40422","18100","BOYLE","KY","21021","31140","Louisville/Jefferson County, KY-IN","Nelson County, Kentucky","21179","same",0
"180048","EPHRAIM MCDOWELL REGIONAL MEDICAL CENTER","217 SOUTH THIRD STREET","DANVILLE","KY","40422","18100","BOYLE","KY","21021","31140","Louisville/Jefferson County, KY-IN","Oldham County, Kentucky","21185","same",0
"180048","EPHRAIM MCDOWELL REGIONAL MEDICAL CENTER","217 SOUTH THIRD STREET","DANVILLE","KY","40422","18100","BOYLE","KY","21021","31140","Louisville/Jefferson County, KY-IN","Shelby County, Kentucky","21211","same",0
"180048","EPHRAIM MCDOWELL REGIONAL MEDICAL CENTER","217 SOUTH THIRD STREET","DANVILLE","KY","40422","18100","BOYLE","KY","21021","31140","Louisville/Jefferson County, KY-IN","Spencer County, Kentucky","21215","same",0
"180048","EPHRAIM MCDOWELL REGIONAL MEDICAL CENTER","217 SOUTH THIRD STREET","DANVILLE","KY","40422","18100","BOYLE","KY","21021","31140","Louisville/Jefferson County, KY-IN","Trimble County, Kentucky","21223","same",0
"180012","HARDIN MEMORIAL HOSPITAL","913 NORTH DIXIE AVENUE","ELIZABETHTOWN","KY","42701","18460","HARDIN","KY","21093","31140","Louisville/Jefferson County, KY-IN","Clark County, Indiana","18019","same",0
"180012","HARDIN MEMORIAL HOSPITAL","913 NORTH DIXIE AVENUE","ELIZABETHTOWN","KY","42701","18460","HARDIN","KY","21093","31140","Louisville/Jefferson County, KY-IN","Floyd County, Indiana","18043","same",0
"180012","HARDIN MEMORIAL HOSPITAL","913 NORTH DIXIE AVENUE","ELIZABETHTOWN","KY","42701","18460","HARDIN","KY","21093","31140","Louisville/Jefferson County, KY-IN","Harrison County, Indiana","18061","same",1
"180012","HARDIN MEMORIAL HOSPITAL","913 NORTH DIXIE AVENUE","ELIZABETHTOWN","KY","42701","18460","HARDIN","KY","21093","31140","Louisville/Jefferson County, KY-IN","Washington County, Indiana","18175","same",0
"180012","HARDIN MEMORIAL HOSPITAL","913 NORTH DIXIE AVENUE","ELIZABETHTOWN","KY","42701","18460","HARDIN","KY","21093","31140","Louisville/Jefferson County, KY-IN","Bullitt County, Kentucky","21029","same",1
"180012","HARDIN MEMORIAL HOSPITAL","913 NORTH DIXIE AVENUE","ELIZABETHTOWN","KY","42701","18460","HARDIN","KY","21093","31140","Louisville/Jefferson County, KY-IN","Henry County, Kentucky","21103","same",0
"180012","HARDIN MEMORIAL HOSPITAL","913 NORTH DIXIE AVENUE","ELIZABETHTOWN","KY","42701","18460","HARDIN","KY","21093","31140","Louisville/Jefferson County, KY-IN","Jefferson County, Kentucky","21111","same",1
"180012","HARDIN MEMORIAL HOSPITAL","913 NORTH DIXIE AVENUE","ELIZABETHTOWN","KY","42701","18460","HARDIN","KY","21093","31140","Louisville/Jefferson County, KY-IN","Meade County, Kentucky","21163","21060",1
"180012","HARDIN MEMORIAL HOSPITAL","913 NORTH DIXIE AVENUE","ELIZABETHTOWN","KY","42701","18460","HARDIN","KY","21093","31140","Louisville/Jefferson County, KY-IN","Nelson County, Kentucky","21179","same",1
"180012","HARDIN MEMORIAL HOSPITAL","913 NORTH DIXIE AVENUE","ELIZABETHTOWN","KY","42701","18460","HARDIN","KY","21093","31140","Louisville/Jefferson County, KY-IN","Oldham County, Kentucky","21185","same",0
"180012","HARDIN MEMORIAL HOSPITAL","913 NORTH DIXIE AVENUE","ELIZABETHTOWN","KY","42701","18460","HARDIN","KY","21093","31140","Louisville/Jefferson County, KY-IN","Shelby County, Kentucky","21211","same",0
"180012","HARDIN MEMORIAL HOSPITAL","913 NORTH DIXIE AVENUE","ELIZABETHTOWN","KY","42701","18460","HARDIN","KY","21093","31140","Louisville/Jefferson County, KY-IN","Spencer County, Kentucky","21215","same",0
"180012","HARDIN MEMORIAL HOSPITAL","913 NORTH DIXIE AVENUE","ELIZABETHTOWN","KY","42701","18460","HARDIN","KY","21093","31140","Louisville/Jefferson County, KY-IN","Trimble County, Kentucky","21223","same",0
"180024","SPRING VIEW HOSPITAL","320 LORETTO ROAD","LEBANON","KY","40033","18770","MARION","KY","21155","31140","Louisville/Jefferson County, KY-IN","Clark County, Indiana","18019","same",0
"180024","SPRING VIEW HOSPITAL","320 LORETTO ROAD","LEBANON","KY","40033","18770","MARION","KY","21155","31140","Louisville/Jefferson County, KY-IN","Floyd County, Indiana","18043","same",0
"180024","SPRING VIEW HOSPITAL","320 LORETTO ROAD","LEBANON","KY","40033","18770","MARION","KY","21155","31140","Louisville/Jefferson County, KY-IN","Harrison County, Indiana","18061","same",0
"180024","SPRING VIEW HOSPITAL","320 LORETTO ROAD","LEBANON","KY","40033","18770","MARION","KY","21155","31140","Louisville/Jefferson County, KY-IN","Washington County, Indiana","18175","same",0
"180024","SPRING VIEW HOSPITAL","320 LORETTO ROAD","LEBANON","KY","40033","18770","MARION","KY","21155","31140","Louisville/Jefferson County, KY-IN","Bullitt County, Kentucky","21029","same",0
"180024","SPRING VIEW HOSPITAL","320 LORETTO ROAD","LEBANON","KY","40033","18770","MARION","KY","21155","31140","Louisville/Jefferson County, KY-IN","Henry County, Kentucky","21103","same",0
"180024","SPRING VIEW HOSPITAL","320 LORETTO ROAD","LEBANON","KY","40033","18770","MARION","KY","21155","31140","Louisville/Jefferson County, KY-IN","Jefferson County, Kentucky","21111","same",0
"180024","SPRING VIEW HOSPITAL","320 LORETTO ROAD","LEBANON","KY","40033","18770","MARION","KY","21155","31140","Louisville/Jefferson County, KY-IN","Meade County, Kentucky","21163","21060",0
"180024","SPRING VIEW HOSPITAL","320 LORETTO ROAD","LEBANON","KY","40033","18770","MARION","KY","21155","31140","Louisville/Jefferson County, KY-IN","Nelson County, Kentucky","21179","same",1
"180024","SPRING VIEW HOSPITAL","320 LORETTO ROAD","LEBANON","KY","40033","18770","MARION","KY","21155","31140","Louisville/Jefferson County, KY-IN","Oldham County, Kentucky","21185","same",0
"180024","SPRING VIEW HOSPITAL","320 LORETTO ROAD","LEBANON","KY","40033","18770","MARION","KY","21155","31140","Louisville/Jefferson County, KY-IN","Shelby County, Kentucky","21211","same",0
"180024","SPRING VIEW HOSPITAL","320 LORETTO ROAD","LEBANON","KY","40033","18770","MARION","KY","21155","31140","Louisville/Jefferson County, KY-IN","Spencer County, Kentucky","21215","same",0
"180024","SPRING VIEW HOSPITAL","320 LORETTO ROAD","LEBANON","KY","40033","18770","MARION","KY","21155","31140","Louisville/Jefferson County, KY-IN","Trimble County, Kentucky","21223","same",0
"310031","DEBORAH HEART AND LUNG CENTER","200 TRENTON ROAD","BROWNS MILLS","NJ","08015","31150","BURLINGTON","NJ","34005","20764","Edison-New Brunswick, NJ","Middlesex County, New Jersey","34023","35614",0
"310031","DEBORAH HEART AND LUNG CENTER","200 TRENTON ROAD","BROWNS MILLS","NJ","08015","31150","BURLINGTON","NJ","34005","20764","Edison-New Brunswick, NJ","Monmouth County, New Jersey","34025","35614",1
"310031","DEBORAH HEART AND LUNG CENTER","200 TRENTON ROAD","BROWNS MILLS","NJ","08015","31150","BURLINGTON","NJ","34005","20764","Edison-New Brunswick, NJ","Ocean County, New Jersey","34029","35614",1
"310031","DEBORAH HEART AND LUNG CENTER","200 TRENTON ROAD","BROWNS MILLS","NJ","08015","31150","BURLINGTON","NJ","34005","20764","Edison-New Brunswick, NJ","Somerset County, New Jersey","34035","35084",0
"310014","COOPER UNIVERSITY HOSPITAL","1 COOPER PLAZA","CAMDEN","NJ","08103","31160","CAMDEN","NJ","34007","37964","Philadelphia, PA","Bucks County, Pennsylvania","42017","33874",0
"310014","COOPER UNIVERSITY HOSPITAL","1 COOPER PLAZA","CAMDEN","NJ","08103","31160","CAMDEN","NJ","34007","37964","Philadelphia, PA","Chester County, Pennsylvania","42029","33874",0
"310014","COOPER UNIVERSITY HOSPITAL","1 COOPER PLAZA","CAMDEN","NJ","08103","31160","CAMDEN","NJ","34007","37964","Philadelphia, PA","Delaware County, Pennsylvania","42045","same",0
"310014","COOPER UNIVERSITY HOSPITAL","1 COOPER PLAZA","CAMDEN","NJ","08103","31160","CAMDEN","NJ","34007","37964","Philadelphia, PA","Montgomery County, Pennsylvania","42091","33874",0
"310014","COOPER UNIVERSITY HOSPITAL","1 COOPER PLAZA","CAMDEN","NJ","08103","31160","CAMDEN","NJ","34007","37964","Philadelphia, PA","Philadelphia County, Pennsylvania","42101","same",1
"310002","NEWARK BETH ISRAEL MEDICAL CENTER","201 LYONS AVE","NEWARK","NJ","07112","31200","ESSEX","NJ","34013","35644","New York-White Plains-Wayne, NY-NJ","Bergen County, New Jersey","34003","35614",1
"310009","CLARA MAASS MEDICAL CENTER","ONE CLARA MAAS DRIVE","BELLEVILLE","NJ","07109","31200","ESSEX","NJ","34013","35644","New York-White Plains-Wayne, NY-NJ","Bergen County, New Jersey","34003","35614",1
"310054","HACKENSACK-UMC MOUNTAINSIDE","BAY AND HIGHLAND AVE","MONTCLAIR","NJ","07042","31200","ESSEX","NJ","34013","35644","New York-White Plains-Wayne, NY-NJ","Bergen County, New Jersey","34003","35614",1
"310076","SAINT BARNABAS MEDICAL CENTER","94 OLD SHORT HILLS ROAD","LIVINGSTON","NJ","07039","31200","ESSEX","NJ","34013","35644","New York-White Plains-Wayne, NY-NJ","Bergen County, New Jersey","34003","35614",1
"310083","EAST ORANGE GENERAL HOSPITAL","300 CENTRAL AVE","EAST ORANGE","NJ","07018","31200","ESSEX","NJ","34013","35644","New York-White Plains-Wayne, NY-NJ","Bergen County, New Jersey","34003","35614",1
"310096","SAINT MICHAEL'S MEDICAL CENTER, INC","111 CENTRAL AVENUE","NEWARK","NJ","07102","31200","ESSEX","NJ","34013","35644","New York-White Plains-Wayne, NY-NJ","Bergen County, New Jersey","34003","35614",1
"310119","UNIVERSITY HOSPITAL","150 BERGEN ST","NEWARK","NJ","07103","31200","ESSEX","NJ","34013","35644","New York-White Plains-Wayne, NY-NJ","Bergen County, New Jersey","34003","35614",1
"310002","NEWARK BETH ISRAEL MEDICAL CENTER","201 LYONS AVE","NEWARK","NJ","07112","31200","ESSEX","NJ","34013","35644","New York-White Plains-Wayne, NY-NJ","Hudson County, New Jersey","34017","35614",1
"310009","CLARA MAASS MEDICAL CENTER","ONE CLARA MAAS DRIVE","BELLEVILLE","NJ","07109","31200","ESSEX","NJ","34013","35644","New York-White Plains-Wayne, NY-NJ","Hudson County, New Jersey","34017","35614",1
"310054","HACKENSACK-UMC MOUNTAINSIDE","BAY AND HIGHLAND AVE","MONTCLAIR","NJ","07042","31200","ESSEX","NJ","34013","35644","New York-White Plains-Wayne, NY-NJ","Hudson County, New Jersey","34017","35614",1
"310076","SAINT BARNABAS MEDICAL CENTER","94 OLD SHORT HILLS ROAD","LIVINGSTON","NJ","07039","31200","ESSEX","NJ","34013","35644","New York-White Plains-Wayne, NY-NJ","Hudson County, New Jersey","34017","35614",1
"310083","EAST ORANGE GENERAL HOSPITAL","300 CENTRAL AVE","EAST ORANGE","NJ","07018","31200","ESSEX","NJ","34013","35644","New York-White Plains-Wayne, NY-NJ","Hudson County, New Jersey","34017","35614",1
"310096","SAINT MICHAEL'S MEDICAL CENTER, INC","111 CENTRAL AVENUE","NEWARK","NJ","07102","31200","ESSEX","NJ","34013","35644","New York-White Plains-Wayne, NY-NJ","Hudson County, New Jersey","34017","35614",1
"310119","UNIVERSITY HOSPITAL","150 BERGEN ST","NEWARK","NJ","07103","31200","ESSEX","NJ","34013","35644","New York-White Plains-Wayne, NY-NJ","Hudson County, New Jersey","34017","35614",1
"310002","NEWARK BETH ISRAEL MEDICAL CENTER","201 LYONS AVE","NEWARK","NJ","07112","31200","ESSEX","NJ","34013","35644","New York-White Plains-Wayne, NY-NJ","Passaic County, New Jersey","34031","35614",1
"310009","CLARA MAASS MEDICAL CENTER","ONE CLARA MAAS DRIVE","BELLEVILLE","NJ","07109","31200","ESSEX","NJ","34013","35644","New York-White Plains-Wayne, NY-NJ","Passaic County, New Jersey","34031","35614",1
"310054","HACKENSACK-UMC MOUNTAINSIDE","BAY AND HIGHLAND AVE","MONTCLAIR","NJ","07042","31200","ESSEX","NJ","34013","35644","New York-White Plains-Wayne, NY-NJ","Passaic County, New Jersey","34031","35614",1
"310076","SAINT BARNABAS MEDICAL CENTER","94 OLD SHORT HILLS ROAD","LIVINGSTON","NJ","07039","31200","ESSEX","NJ","34013","35644","New York-White Plains-Wayne, NY-NJ","Passaic County, New Jersey","34031","35614",1
"310083","EAST ORANGE GENERAL HOSPITAL","300 CENTRAL AVE","EAST ORANGE","NJ","07018","31200","ESSEX","NJ","34013","35644","New York-White Plains-Wayne, NY-NJ","Passaic County, New Jersey","34031","35614",1
"310096","SAINT MICHAEL'S MEDICAL CENTER, INC","111 CENTRAL AVENUE","NEWARK","NJ","07102","31200","ESSEX","NJ","34013","35644","New York-White Plains-Wayne, NY-NJ","Passaic County, New Jersey","34031","35614",1
"310119","UNIVERSITY HOSPITAL","150 BERGEN ST","NEWARK","NJ","07103","31200","ESSEX","NJ","34013","35644","New York-White Plains-Wayne, NY-NJ","Passaic County, New Jersey","34031","35614",1
"310002","NEWARK BETH ISRAEL MEDICAL CENTER","201 LYONS AVE","NEWARK","NJ","07112","31200","ESSEX","NJ","34013","35644","New York-White Plains-Wayne, NY-NJ","Bronx County, New York","36005","35614",0
"310009","CLARA MAASS MEDICAL CENTER","ONE CLARA MAAS DRIVE","BELLEVILLE","NJ","07109","31200","ESSEX","NJ","34013","35644","New York-White Plains-Wayne, NY-NJ","Bronx County, New York","36005","35614",0
"310054","HACKENSACK-UMC MOUNTAINSIDE","BAY AND HIGHLAND AVE","MONTCLAIR","NJ","07042","31200","ESSEX","NJ","34013","35644","New York-White Plains-Wayne, NY-NJ","Bronx County, New York","36005","35614",0
"310076","SAINT BARNABAS MEDICAL CENTER","94 OLD SHORT HILLS ROAD","LIVINGSTON","NJ","07039","31200","ESSEX","NJ","34013","35644","New York-White Plains-Wayne, NY-NJ","Bronx County, New York","36005","35614",0
"310083","EAST ORANGE GENERAL HOSPITAL","300 CENTRAL AVE","EAST ORANGE","NJ","07018","31200","ESSEX","NJ","34013","35644","New York-White Plains-Wayne, NY-NJ","Bronx County, New York","36005","35614",0
"310096","SAINT MICHAEL'S MEDICAL CENTER, INC","111 CENTRAL AVENUE","NEWARK","NJ","07102","31200","ESSEX","NJ","34013","35644","New York-White Plains-Wayne, NY-NJ","Bronx County, New York","36005","35614",0
"310119","UNIVERSITY HOSPITAL","150 BERGEN ST","NEWARK","NJ","07103","31200","ESSEX","NJ","34013","35644","New York-White Plains-Wayne, NY-NJ","Bronx County, New York","36005","35614",0
"310002","NEWARK BETH ISRAEL MEDICAL CENTER","201 LYONS AVE","NEWARK","NJ","07112","31200","ESSEX","NJ","34013","35644","New York-White Plains-Wayne, NY-NJ","Kings County, New York","36047","35614",0
"310009","CLARA MAASS MEDICAL CENTER","ONE CLARA MAAS DRIVE","BELLEVILLE","NJ","07109","31200","ESSEX","NJ","34013","35644","New York-White Plains-Wayne, NY-NJ","Kings County, New York","36047","35614",0
"310054","HACKENSACK-UMC MOUNTAINSIDE","BAY AND HIGHLAND AVE","MONTCLAIR","NJ","07042","31200","ESSEX","NJ","34013","35644","New York-White Plains-Wayne, NY-NJ","Kings County, New York","36047","35614",0
"310076","SAINT BARNABAS MEDICAL CENTER","94 OLD SHORT HILLS ROAD","LIVINGSTON","NJ","07039","31200","ESSEX","NJ","34013","35644","New York-White Plains-Wayne, NY-NJ","Kings County, New York","36047","35614",0
"310083","EAST ORANGE GENERAL HOSPITAL","300 CENTRAL AVE","EAST ORANGE","NJ","07018","31200","ESSEX","NJ","34013","35644","New York-White Plains-Wayne, NY-NJ","Kings County, New York","36047","35614",0
"310096","SAINT MICHAEL'S MEDICAL CENTER, INC","111 CENTRAL AVENUE","NEWARK","NJ","07102","31200","ESSEX","NJ","34013","35644","New York-White Plains-Wayne, NY-NJ","Kings County, New York","36047","35614",0
"310119","UNIVERSITY HOSPITAL","150 BERGEN ST","NEWARK","NJ","07103","31200","ESSEX","NJ","34013","35644","New York-White Plains-Wayne, NY-NJ","Kings County, New York","36047","35614",0
"310002","NEWARK BETH ISRAEL MEDICAL CENTER","201 LYONS AVE","NEWARK","NJ","07112","31200","ESSEX","NJ","34013","35644","New York-White Plains-Wayne, NY-NJ","New York County, New York","36061","35614",0
"310009","CLARA MAASS MEDICAL CENTER","ONE CLARA MAAS DRIVE","BELLEVILLE","NJ","07109","31200","ESSEX","NJ","34013","35644","New York-White Plains-Wayne, NY-NJ","New York County, New York","36061","35614",0
"310054","HACKENSACK-UMC MOUNTAINSIDE","BAY AND HIGHLAND AVE","MONTCLAIR","NJ","07042","31200","ESSEX","NJ","34013","35644","New York-White Plains-Wayne, NY-NJ","New York County, New York","36061","35614",0
"310076","SAINT BARNABAS MEDICAL CENTER","94 OLD SHORT HILLS ROAD","LIVINGSTON","NJ","07039","31200","ESSEX","NJ","34013","35644","New York-White Plains-Wayne, NY-NJ","New York County, New York","36061","35614",0
"310083","EAST ORANGE GENERAL HOSPITAL","300 CENTRAL AVE","EAST ORANGE","NJ","07018","31200","ESSEX","NJ","34013","35644","New York-White Plains-Wayne, NY-NJ","New York County, New York","36061","35614",0
"310096","SAINT MICHAEL'S MEDICAL CENTER, INC","111 CENTRAL AVENUE","NEWARK","NJ","07102","31200","ESSEX","NJ","34013","35644","New York-White Plains-Wayne, NY-NJ","New York County, New York","36061","35614",0
"310119","UNIVERSITY HOSPITAL","150 BERGEN ST","NEWARK","NJ","07103","31200","ESSEX","NJ","34013","35644","New York-White Plains-Wayne, NY-NJ","New York County, New York","36061","35614",0
"310002","NEWARK BETH ISRAEL MEDICAL CENTER","201 LYONS AVE","NEWARK","NJ","07112","31200","ESSEX","NJ","34013","35644","New York-White Plains-Wayne, NY-NJ","Putnam County, New York","36079","20524",0
"310009","CLARA MAASS MEDICAL CENTER","ONE CLARA MAAS DRIVE","BELLEVILLE","NJ","07109","31200","ESSEX","NJ","34013","35644","New York-White Plains-Wayne, NY-NJ","Putnam County, New York","36079","20524",0
"310054","HACKENSACK-UMC MOUNTAINSIDE","BAY AND HIGHLAND AVE","MONTCLAIR","NJ","07042","31200","ESSEX","NJ","34013","35644","New York-White Plains-Wayne, NY-NJ","Putnam County, New York","36079","20524",0
"310076","SAINT BARNABAS MEDICAL CENTER","94 OLD SHORT HILLS ROAD","LIVINGSTON","NJ","07039","31200","ESSEX","NJ","34013","35644","New York-White Plains-Wayne, NY-NJ","Putnam County, New York","36079","20524",0
"310083","EAST ORANGE GENERAL HOSPITAL","300 CENTRAL AVE","EAST ORANGE","NJ","07018","31200","ESSEX","NJ","34013","35644","New York-White Plains-Wayne, NY-NJ","Putnam County, New York","36079","20524",0
"310096","SAINT MICHAEL'S MEDICAL CENTER, INC","111 CENTRAL AVENUE","NEWARK","NJ","07102","31200","ESSEX","NJ","34013","35644","New York-White Plains-Wayne, NY-NJ","Putnam County, New York","36079","20524",0
"310119","UNIVERSITY HOSPITAL","150 BERGEN ST","NEWARK","NJ","07103","31200","ESSEX","NJ","34013","35644","New York-White Plains-Wayne, NY-NJ","Putnam County, New York","36079","20524",0
"310002","NEWARK BETH ISRAEL MEDICAL CENTER","201 LYONS AVE","NEWARK","NJ","07112","31200","ESSEX","NJ","34013","35644","New York-White Plains-Wayne, NY-NJ","Queens County, New York","36081","35614",0
"310009","CLARA MAASS MEDICAL CENTER","ONE CLARA MAAS DRIVE","BELLEVILLE","NJ","07109","31200","ESSEX","NJ","34013","35644","New York-White Plains-Wayne, NY-NJ","Queens County, New York","36081","35614",0
"310054","HACKENSACK-UMC MOUNTAINSIDE","BAY AND HIGHLAND AVE","MONTCLAIR","NJ","07042","31200","ESSEX","NJ","34013","35644","New York-White Plains-Wayne, NY-NJ","Queens County, New York","36081","35614",0
"310076","SAINT BARNABAS MEDICAL CENTER","94 OLD SHORT HILLS ROAD","LIVINGSTON","NJ","07039","31200","ESSEX","NJ","34013","35644","New York-White Plains-Wayne, NY-NJ","Queens County, New York","36081","35614",0
"310083","EAST ORANGE GENERAL HOSPITAL","300 CENTRAL AVE","EAST ORANGE","NJ","07018","31200","ESSEX","NJ","34013","35644","New York-White Plains-Wayne, NY-NJ","Queens County, New York","36081","35614",0
"310096","SAINT MICHAEL'S MEDICAL CENTER, INC","111 CENTRAL AVENUE","NEWARK","NJ","07102","31200","ESSEX","NJ","34013","35644","New York-White Plains-Wayne, NY-NJ","Queens County, New York","36081","35614",0
"310119","UNIVERSITY HOSPITAL","150 BERGEN ST","NEWARK","NJ","07103","31200","ESSEX","NJ","34013","35644","New York-White Plains-Wayne, NY-NJ","Queens County, New York","36081","35614",0
"310002","NEWARK BETH ISRAEL MEDICAL CENTER","201 LYONS AVE","NEWARK","NJ","07112","31200","ESSEX","NJ","34013","35644","New York-White Plains-Wayne, NY-NJ","Richmond County, New York","36085","35614",0
"310009","CLARA MAASS MEDICAL CENTER","ONE CLARA MAAS DRIVE","BELLEVILLE","NJ","07109","31200","ESSEX","NJ","34013","35644","New York-White Plains-Wayne, NY-NJ","Richmond County, New York","36085","35614",0
"310054","HACKENSACK-UMC MOUNTAINSIDE","BAY AND HIGHLAND AVE","MONTCLAIR","NJ","07042","31200","ESSEX","NJ","34013","35644","New York-White Plains-Wayne, NY-NJ","Richmond County, New York","36085","35614",0
"310076","SAINT BARNABAS MEDICAL CENTER","94 OLD SHORT HILLS ROAD","LIVINGSTON","NJ","07039","31200","ESSEX","NJ","34013","35644","New York-White Plains-Wayne, NY-NJ","Richmond County, New York","36085","35614",0
"310083","EAST ORANGE GENERAL HOSPITAL","300 CENTRAL AVE","EAST ORANGE","NJ","07018","31200","ESSEX","NJ","34013","35644","New York-White Plains-Wayne, NY-NJ","Richmond County, New York","36085","35614",0
"310096","SAINT MICHAEL'S MEDICAL CENTER, INC","111 CENTRAL AVENUE","NEWARK","NJ","07102","31200","ESSEX","NJ","34013","35644","New York-White Plains-Wayne, NY-NJ","Richmond County, New York","36085","35614",0
"310119","UNIVERSITY HOSPITAL","150 BERGEN ST","NEWARK","NJ","07103","31200","ESSEX","NJ","34013","35644","New York-White Plains-Wayne, NY-NJ","Richmond County, New York","36085","35614",0
"310002","NEWARK BETH ISRAEL MEDICAL CENTER","201 LYONS AVE","NEWARK","NJ","07112","31200","ESSEX","NJ","34013","35644","New York-White Plains-Wayne, NY-NJ","Rockland County, New York","36087","35614",0
"310009","CLARA MAASS MEDICAL CENTER","ONE CLARA MAAS DRIVE","BELLEVILLE","NJ","07109","31200","ESSEX","NJ","34013","35644","New York-White Plains-Wayne, NY-NJ","Rockland County, New York","36087","35614",0
"310054","HACKENSACK-UMC MOUNTAINSIDE","BAY AND HIGHLAND AVE","MONTCLAIR","NJ","07042","31200","ESSEX","NJ","34013","35644","New York-White Plains-Wayne, NY-NJ","Rockland County, New York","36087","35614",0
"310076","SAINT BARNABAS MEDICAL CENTER","94 OLD SHORT HILLS ROAD","LIVINGSTON","NJ","07039","31200","ESSEX","NJ","34013","35644","New York-White Plains-Wayne, NY-NJ","Rockland County, New York","36087","35614",0
"310083","EAST ORANGE GENERAL HOSPITAL","300 CENTRAL AVE","EAST ORANGE","NJ","07018","31200","ESSEX","NJ","34013","35644","New York-White Plains-Wayne, NY-NJ","Rockland County, New York","36087","35614",0
"310096","SAINT MICHAEL'S MEDICAL CENTER, INC","111 CENTRAL AVENUE","NEWARK","NJ","07102","31200","ESSEX","NJ","34013","35644","New York-White Plains-Wayne, NY-NJ","Rockland County, New York","36087","35614",0
"310119","UNIVERSITY HOSPITAL","150 BERGEN ST","NEWARK","NJ","07103","31200","ESSEX","NJ","34013","35644","New York-White Plains-Wayne, NY-NJ","Rockland County, New York","36087","35614",0
"310002","NEWARK BETH ISRAEL MEDICAL CENTER","201 LYONS AVE","NEWARK","NJ","07112","31200","ESSEX","NJ","34013","35644","New York-White Plains-Wayne, NY-NJ","Westchester County, New York","36119","35614",0
"310009","CLARA MAASS MEDICAL CENTER","ONE CLARA MAAS DRIVE","BELLEVILLE","NJ","07109","31200","ESSEX","NJ","34013","35644","New York-White Plains-Wayne, NY-NJ","Westchester County, New York","36119","35614",0
"310054","HACKENSACK-UMC MOUNTAINSIDE","BAY AND HIGHLAND AVE","MONTCLAIR","NJ","07042","31200","ESSEX","NJ","34013","35644","New York-White Plains-Wayne, NY-NJ","Westchester County, New York","36119","35614",0
"310076","SAINT BARNABAS MEDICAL CENTER","94 OLD SHORT HILLS ROAD","LIVINGSTON","NJ","07039","31200","ESSEX","NJ","34013","35644","New York-White Plains-Wayne, NY-NJ","Westchester County, New York","36119","35614",0
"310083","EAST ORANGE GENERAL HOSPITAL","300 CENTRAL AVE","EAST ORANGE","NJ","07018","31200","ESSEX","NJ","34013","35644","New York-White Plains-Wayne, NY-NJ","Westchester County, New York","36119","35614",0
"310096","SAINT MICHAEL'S MEDICAL CENTER, INC","111 CENTRAL AVENUE","NEWARK","NJ","07102","31200","ESSEX","NJ","34013","35644","New York-White Plains-Wayne, NY-NJ","Westchester County, New York","36119","35614",0
"310119","UNIVERSITY HOSPITAL","150 BERGEN ST","NEWARK","NJ","07103","31200","ESSEX","NJ","34013","35644","New York-White Plains-Wayne, NY-NJ","Westchester County, New York","36119","35614",0
"310038","ROBERT WOOD JOHNSON UNIVERSITY HOSPITAL","ONE ROBERT WOOD JOHNSON PL","NEW BRUNSWICK","NJ","08901","31270","MIDDLESEX","NJ","34023","35644","New York-White Plains-Wayne, NY-NJ","Bergen County, New Jersey","34003","35614",0
"310039","RARITAN BAY MEDICAL CENTER","530 NEW BRUNSWICK AVE","PERTH AMBOY","NJ","08861","31270","MIDDLESEX","NJ","34023","35644","New York-White Plains-Wayne, NY-NJ","Bergen County, New Jersey","34003","35614",0
"310070","SAINT PETER'S UNIVERSITY HOSPITAL","254 EASTON AVE","NEW BRUNSWICK","NJ","08901","31270","MIDDLESEX","NJ","34023","35644","New York-White Plains-Wayne, NY-NJ","Bergen County, New Jersey","34003","35614",0
"310108","JFK MEDICAL CTR - ANTHONY M. YELENCSICS COMMUNITY","65 JAMES STREET","EDISON","NJ","08818","31270","MIDDLESEX","NJ","34023","35644","New York-White Plains-Wayne, NY-NJ","Bergen County, New Jersey","34003","35614",0
"310038","ROBERT WOOD JOHNSON UNIVERSITY HOSPITAL","ONE ROBERT WOOD JOHNSON PL","NEW BRUNSWICK","NJ","08901","31270","MIDDLESEX","NJ","34023","35644","New York-White Plains-Wayne, NY-NJ","Hudson County, New Jersey","34017","35614",0
"310039","RARITAN BAY MEDICAL CENTER","530 NEW BRUNSWICK AVE","PERTH AMBOY","NJ","08861","31270","MIDDLESEX","NJ","34023","35644","New York-White Plains-Wayne, NY-NJ","Hudson County, New Jersey","34017","35614",0
"310070","SAINT PETER'S UNIVERSITY HOSPITAL","254 EASTON AVE","NEW BRUNSWICK","NJ","08901","31270","MIDDLESEX","NJ","34023","35644","New York-White Plains-Wayne, NY-NJ","Hudson County, New Jersey","34017","35614",0
"310108","JFK MEDICAL CTR - ANTHONY M. YELENCSICS COMMUNITY","65 JAMES STREET","EDISON","NJ","08818","31270","MIDDLESEX","NJ","34023","35644","New York-White Plains-Wayne, NY-NJ","Hudson County, New Jersey","34017","35614",0
"310038","ROBERT WOOD JOHNSON UNIVERSITY HOSPITAL","ONE ROBERT WOOD JOHNSON PL","NEW BRUNSWICK","NJ","08901","31270","MIDDLESEX","NJ","34023","35644","New York-White Plains-Wayne, NY-NJ","Passaic County, New Jersey","34031","35614",0
"310039","RARITAN BAY MEDICAL CENTER","530 NEW BRUNSWICK AVE","PERTH AMBOY","NJ","08861","31270","MIDDLESEX","NJ","34023","35644","New York-White Plains-Wayne, NY-NJ","Passaic County, New Jersey","34031","35614",0
"310070","SAINT PETER'S UNIVERSITY HOSPITAL","254 EASTON AVE","NEW BRUNSWICK","NJ","08901","31270","MIDDLESEX","NJ","34023","35644","New York-White Plains-Wayne, NY-NJ","Passaic County, New Jersey","34031","35614",0
"310108","JFK MEDICAL CTR - ANTHONY M. YELENCSICS COMMUNITY","65 JAMES STREET","EDISON","NJ","08818","31270","MIDDLESEX","NJ","34023","35644","New York-White Plains-Wayne, NY-NJ","Passaic County, New Jersey","34031","35614",0
"310038","ROBERT WOOD JOHNSON UNIVERSITY HOSPITAL","ONE ROBERT WOOD JOHNSON PL","NEW BRUNSWICK","NJ","08901","31270","MIDDLESEX","NJ","34023","35644","New York-White Plains-Wayne, NY-NJ","Bronx County, New York","36005","35614",0
"310039","RARITAN BAY MEDICAL CENTER","530 NEW BRUNSWICK AVE","PERTH AMBOY","NJ","08861","31270","MIDDLESEX","NJ","34023","35644","New York-White Plains-Wayne, NY-NJ","Bronx County, New York","36005","35614",0
"310070","SAINT PETER'S UNIVERSITY HOSPITAL","254 EASTON AVE","NEW BRUNSWICK","NJ","08901","31270","MIDDLESEX","NJ","34023","35644","New York-White Plains-Wayne, NY-NJ","Bronx County, New York","36005","35614",0
"310108","JFK MEDICAL CTR - ANTHONY M. YELENCSICS COMMUNITY","65 JAMES STREET","EDISON","NJ","08818","31270","MIDDLESEX","NJ","34023","35644","New York-White Plains-Wayne, NY-NJ","Bronx County, New York","36005","35614",0
"310038","ROBERT WOOD JOHNSON UNIVERSITY HOSPITAL","ONE ROBERT WOOD JOHNSON PL","NEW BRUNSWICK","NJ","08901","31270","MIDDLESEX","NJ","34023","35644","New York-White Plains-Wayne, NY-NJ","Kings County, New York","36047","35614",0
"310039","RARITAN BAY MEDICAL CENTER","530 NEW BRUNSWICK AVE","PERTH AMBOY","NJ","08861","31270","MIDDLESEX","NJ","34023","35644","New York-White Plains-Wayne, NY-NJ","Kings County, New York","36047","35614",0
"310070","SAINT PETER'S UNIVERSITY HOSPITAL","254 EASTON AVE","NEW BRUNSWICK","NJ","08901","31270","MIDDLESEX","NJ","34023","35644","New York-White Plains-Wayne, NY-NJ","Kings County, New York","36047","35614",0
"310108","JFK MEDICAL CTR - ANTHONY M. YELENCSICS COMMUNITY","65 JAMES STREET","EDISON","NJ","08818","31270","MIDDLESEX","NJ","34023","35644","New York-White Plains-Wayne, NY-NJ","Kings County, New York","36047","35614",0
"310038","ROBERT WOOD JOHNSON UNIVERSITY HOSPITAL","ONE ROBERT WOOD JOHNSON PL","NEW BRUNSWICK","NJ","08901","31270","MIDDLESEX","NJ","34023","35644","New York-White Plains-Wayne, NY-NJ","New York County, New York","36061","35614",0
"310039","RARITAN BAY MEDICAL CENTER","530 NEW BRUNSWICK AVE","PERTH AMBOY","NJ","08861","31270","MIDDLESEX","NJ","34023","35644","New York-White Plains-Wayne, NY-NJ","New York County, New York","36061","35614",0
"310070","SAINT PETER'S UNIVERSITY HOSPITAL","254 EASTON AVE","NEW BRUNSWICK","NJ","08901","31270","MIDDLESEX","NJ","34023","35644","New York-White Plains-Wayne, NY-NJ","New York County, New York","36061","35614",0
"310108","JFK MEDICAL CTR - ANTHONY M. YELENCSICS COMMUNITY","65 JAMES STREET","EDISON","NJ","08818","31270","MIDDLESEX","NJ","34023","35644","New York-White Plains-Wayne, NY-NJ","New York County, New York","36061","35614",0
"310038","ROBERT WOOD JOHNSON UNIVERSITY HOSPITAL","ONE ROBERT WOOD JOHNSON PL","NEW BRUNSWICK","NJ","08901","31270","MIDDLESEX","NJ","34023","35644","New York-White Plains-Wayne, NY-NJ","Putnam County, New York","36079","20524",0
"310039","RARITAN BAY MEDICAL CENTER","530 NEW BRUNSWICK AVE","PERTH AMBOY","NJ","08861","31270","MIDDLESEX","NJ","34023","35644","New York-White Plains-Wayne, NY-NJ","Putnam County, New York","36079","20524",0
"310070","SAINT PETER'S UNIVERSITY HOSPITAL","254 EASTON AVE","NEW BRUNSWICK","NJ","08901","31270","MIDDLESEX","NJ","34023","35644","New York-White Plains-Wayne, NY-NJ","Putnam County, New York","36079","20524",0
"310108","JFK MEDICAL CTR - ANTHONY M. YELENCSICS COMMUNITY","65 JAMES STREET","EDISON","NJ","08818","31270","MIDDLESEX","NJ","34023","35644","New York-White Plains-Wayne, NY-NJ","Putnam County, New York","36079","20524",0
"310038","ROBERT WOOD JOHNSON UNIVERSITY HOSPITAL","ONE ROBERT WOOD JOHNSON PL","NEW BRUNSWICK","NJ","08901","31270","MIDDLESEX","NJ","34023","35644","New York-White Plains-Wayne, NY-NJ","Queens County, New York","36081","35614",0
"310039","RARITAN BAY MEDICAL CENTER","530 NEW BRUNSWICK AVE","PERTH AMBOY","NJ","08861","31270","MIDDLESEX","NJ","34023","35644","New York-White Plains-Wayne, NY-NJ","Queens County, New York","36081","35614",0
"310070","SAINT PETER'S UNIVERSITY HOSPITAL","254 EASTON AVE","NEW BRUNSWICK","NJ","08901","31270","MIDDLESEX","NJ","34023","35644","New York-White Plains-Wayne, NY-NJ","Queens County, New York","36081","35614",0
"310108","JFK MEDICAL CTR - ANTHONY M. YELENCSICS COMMUNITY","65 JAMES STREET","EDISON","NJ","08818","31270","MIDDLESEX","NJ","34023","35644","New York-White Plains-Wayne, NY-NJ","Queens County, New York","36081","35614",0
"310038","ROBERT WOOD JOHNSON UNIVERSITY HOSPITAL","ONE ROBERT WOOD JOHNSON PL","NEW BRUNSWICK","NJ","08901","31270","MIDDLESEX","NJ","34023","35644","New York-White Plains-Wayne, NY-NJ","Richmond County, New York","36085","35614",1
"310039","RARITAN BAY MEDICAL CENTER","530 NEW BRUNSWICK AVE","PERTH AMBOY","NJ","08861","31270","MIDDLESEX","NJ","34023","35644","New York-White Plains-Wayne, NY-NJ","Richmond County, New York","36085","35614",1
"310070","SAINT PETER'S UNIVERSITY HOSPITAL","254 EASTON AVE","NEW BRUNSWICK","NJ","08901","31270","MIDDLESEX","NJ","34023","35644","New York-White Plains-Wayne, NY-NJ","Richmond County, New York","36085","35614",1
"310108","JFK MEDICAL CTR - ANTHONY M. YELENCSICS COMMUNITY","65 JAMES STREET","EDISON","NJ","08818","31270","MIDDLESEX","NJ","34023","35644","New York-White Plains-Wayne, NY-NJ","Richmond County, New York","36085","35614",1
"310038","ROBERT WOOD JOHNSON UNIVERSITY HOSPITAL","ONE ROBERT WOOD JOHNSON PL","NEW BRUNSWICK","NJ","08901","31270","MIDDLESEX","NJ","34023","35644","New York-White Plains-Wayne, NY-NJ","Rockland County, New York","36087","35614",0
"310039","RARITAN BAY MEDICAL CENTER","530 NEW BRUNSWICK AVE","PERTH AMBOY","NJ","08861","31270","MIDDLESEX","NJ","34023","35644","New York-White Plains-Wayne, NY-NJ","Rockland County, New York","36087","35614",0
"310070","SAINT PETER'S UNIVERSITY HOSPITAL","254 EASTON AVE","NEW BRUNSWICK","NJ","08901","31270","MIDDLESEX","NJ","34023","35644","New York-White Plains-Wayne, NY-NJ","Rockland County, New York","36087","35614",0
"310108","JFK MEDICAL CTR - ANTHONY M. YELENCSICS COMMUNITY","65 JAMES STREET","EDISON","NJ","08818","31270","MIDDLESEX","NJ","34023","35644","New York-White Plains-Wayne, NY-NJ","Rockland County, New York","36087","35614",0
"310038","ROBERT WOOD JOHNSON UNIVERSITY HOSPITAL","ONE ROBERT WOOD JOHNSON PL","NEW BRUNSWICK","NJ","08901","31270","MIDDLESEX","NJ","34023","35644","New York-White Plains-Wayne, NY-NJ","Westchester County, New York","36119","35614",0
"310039","RARITAN BAY MEDICAL CENTER","530 NEW BRUNSWICK AVE","PERTH AMBOY","NJ","08861","31270","MIDDLESEX","NJ","34023","35644","New York-White Plains-Wayne, NY-NJ","Westchester County, New York","36119","35614",0
"310070","SAINT PETER'S UNIVERSITY HOSPITAL","254 EASTON AVE","NEW BRUNSWICK","NJ","08901","31270","MIDDLESEX","NJ","34023","35644","New York-White Plains-Wayne, NY-NJ","Westchester County, New York","36119","35614",0
"310108","JFK MEDICAL CTR - ANTHONY M. YELENCSICS COMMUNITY","65 JAMES STREET","EDISON","NJ","08818","31270","MIDDLESEX","NJ","34023","35644","New York-White Plains-Wayne, NY-NJ","Westchester County, New York","36119","35614",0
"310015","MORRISTOWN MEDICAL CENTER","100 MADISON AVE","MORRISTOWN","NJ","07962","31300","MORRIS","NJ","34027","35644","New York-White Plains-Wayne, NY-NJ","Bergen County, New Jersey","34003","35614",0
"310017","CHILTON MEDICAL CENTER","97 WEST PARKWAY","POMPTON PLAINS","NJ","07444","31300","MORRIS","NJ","34027","35644","New York-White Plains-Wayne, NY-NJ","Bergen County, New Jersey","34003","35614",0
"310050","SAINT CLARE'S HOSPITAL","25 POCONO ROAD","DENVILLE","NJ","07834","31300","MORRIS","NJ","34027","35644","New York-White Plains-Wayne, NY-NJ","Bergen County, New Jersey","34003","35614",0
"310015","MORRISTOWN MEDICAL CENTER","100 MADISON AVE","MORRISTOWN","NJ","07962","31300","MORRIS","NJ","34027","35644","New York-White Plains-Wayne, NY-NJ","Hudson County, New Jersey","34017","35614",0
"310017","CHILTON MEDICAL CENTER","97 WEST PARKWAY","POMPTON PLAINS","NJ","07444","31300","MORRIS","NJ","34027","35644","New York-White Plains-Wayne, NY-NJ","Hudson County, New Jersey","34017","35614",0
"310050","SAINT CLARE'S HOSPITAL","25 POCONO ROAD","DENVILLE","NJ","07834","31300","MORRIS","NJ","34027","35644","New York-White Plains-Wayne, NY-NJ","Hudson County, New Jersey","34017","35614",0
"310015","MORRISTOWN MEDICAL CENTER","100 MADISON AVE","MORRISTOWN","NJ","07962","31300","MORRIS","NJ","34027","35644","New York-White Plains-Wayne, NY-NJ","Passaic County, New Jersey","34031","35614",1
"310017","CHILTON MEDICAL CENTER","97 WEST PARKWAY","POMPTON PLAINS","NJ","07444","31300","MORRIS","NJ","34027","35644","New York-White Plains-Wayne, NY-NJ","Passaic County, New Jersey","34031","35614",1
"310050","SAINT CLARE'S HOSPITAL","25 POCONO ROAD","DENVILLE","NJ","07834","31300","MORRIS","NJ","34027","35644","New York-White Plains-Wayne, NY-NJ","Passaic County, New Jersey","34031","35614",1
"310015","MORRISTOWN MEDICAL CENTER","100 MADISON AVE","MORRISTOWN","NJ","07962","31300","MORRIS","NJ","34027","35644","New York-White Plains-Wayne, NY-NJ","Bronx County, New York","36005","35614",0
"310017","CHILTON MEDICAL CENTER","97 WEST PARKWAY","POMPTON PLAINS","NJ","07444","31300","MORRIS","NJ","34027","35644","New York-White Plains-Wayne, NY-NJ","Bronx County, New York","36005","35614",0
"310050","SAINT CLARE'S HOSPITAL","25 POCONO ROAD","DENVILLE","NJ","07834","31300","MORRIS","NJ","34027","35644","New York-White Plains-Wayne, NY-NJ","Bronx County, New York","36005","35614",0
"310015","MORRISTOWN MEDICAL CENTER","100 MADISON AVE","MORRISTOWN","NJ","07962","31300","MORRIS","NJ","34027","35644","New York-White Plains-Wayne, NY-NJ","Kings County, New York","36047","35614",0
"310017","CHILTON MEDICAL CENTER","97 WEST PARKWAY","POMPTON PLAINS","NJ","07444","31300","MORRIS","NJ","34027","35644","New York-White Plains-Wayne, NY-NJ","Kings County, New York","36047","35614",0
"310050","SAINT CLARE'S HOSPITAL","25 POCONO ROAD","DENVILLE","NJ","07834","31300","MORRIS","NJ","34027","35644","New York-White Plains-Wayne, NY-NJ","Kings County, New York","36047","35614",0
"310015","MORRISTOWN MEDICAL CENTER","100 MADISON AVE","MORRISTOWN","NJ","07962","31300","MORRIS","NJ","34027","35644","New York-White Plains-Wayne, NY-NJ","New York County, New York","36061","35614",0
"310017","CHILTON MEDICAL CENTER","97 WEST PARKWAY","POMPTON PLAINS","NJ","07444","31300","MORRIS","NJ","34027","35644","New York-White Plains-Wayne, NY-NJ","New York County, New York","36061","35614",0
"310050","SAINT CLARE'S HOSPITAL","25 POCONO ROAD","DENVILLE","NJ","07834","31300","MORRIS","NJ","34027","35644","New York-White Plains-Wayne, NY-NJ","New York County, New York","36061","35614",0
"310015","MORRISTOWN MEDICAL CENTER","100 MADISON AVE","MORRISTOWN","NJ","07962","31300","MORRIS","NJ","34027","35644","New York-White Plains-Wayne, NY-NJ","Putnam County, New York","36079","20524",0
"310017","CHILTON MEDICAL CENTER","97 WEST PARKWAY","POMPTON PLAINS","NJ","07444","31300","MORRIS","NJ","34027","35644","New York-White Plains-Wayne, NY-NJ","Putnam County, New York","36079","20524",0
"310050","SAINT CLARE'S HOSPITAL","25 POCONO ROAD","DENVILLE","NJ","07834","31300","MORRIS","NJ","34027","35644","New York-White Plains-Wayne, NY-NJ","Putnam County, New York","36079","20524",0
"310015","MORRISTOWN MEDICAL CENTER","100 MADISON AVE","MORRISTOWN","NJ","07962","31300","MORRIS","NJ","34027","35644","New York-White Plains-Wayne, NY-NJ","Queens County, New York","36081","35614",0
"310017","CHILTON MEDICAL CENTER","97 WEST PARKWAY","POMPTON PLAINS","NJ","07444","31300","MORRIS","NJ","34027","35644","New York-White Plains-Wayne, NY-NJ","Queens County, New York","36081","35614",0
"310050","SAINT CLARE'S HOSPITAL","25 POCONO ROAD","DENVILLE","NJ","07834","31300","MORRIS","NJ","34027","35644","New York-White Plains-Wayne, NY-NJ","Queens County, New York","36081","35614",0
"310015","MORRISTOWN MEDICAL CENTER","100 MADISON AVE","MORRISTOWN","NJ","07962","31300","MORRIS","NJ","34027","35644","New York-White Plains-Wayne, NY-NJ","Richmond County, New York","36085","35614",0
"310017","CHILTON MEDICAL CENTER","97 WEST PARKWAY","POMPTON PLAINS","NJ","07444","31300","MORRIS","NJ","34027","35644","New York-White Plains-Wayne, NY-NJ","Richmond County, New York","36085","35614",0
"310050","SAINT CLARE'S HOSPITAL","25 POCONO ROAD","DENVILLE","NJ","07834","31300","MORRIS","NJ","34027","35644","New York-White Plains-Wayne, NY-NJ","Richmond County, New York","36085","35614",0
"310015","MORRISTOWN MEDICAL CENTER","100 MADISON AVE","MORRISTOWN","NJ","07962","31300","MORRIS","NJ","34027","35644","New York-White Plains-Wayne, NY-NJ","Rockland County, New York","36087","35614",0
"310017","CHILTON MEDICAL CENTER","97 WEST PARKWAY","POMPTON PLAINS","NJ","07444","31300","MORRIS","NJ","34027","35644","New York-White Plains-Wayne, NY-NJ","Rockland County, New York","36087","35614",0
"310050","SAINT CLARE'S HOSPITAL","25 POCONO ROAD","DENVILLE","NJ","07834","31300","MORRIS","NJ","34027","35644","New York-White Plains-Wayne, NY-NJ","Rockland County, New York","36087","35614",0
"310015","MORRISTOWN MEDICAL CENTER","100 MADISON AVE","MORRISTOWN","NJ","07962","31300","MORRIS","NJ","34027","35644","New York-White Plains-Wayne, NY-NJ","Westchester County, New York","36119","35614",0
"310017","CHILTON MEDICAL CENTER","97 WEST PARKWAY","POMPTON PLAINS","NJ","07444","31300","MORRIS","NJ","34027","35644","New York-White Plains-Wayne, NY-NJ","Westchester County, New York","36119","35614",0
"310050","SAINT CLARE'S HOSPITAL","25 POCONO ROAD","DENVILLE","NJ","07834","31300","MORRIS","NJ","34027","35644","New York-White Plains-Wayne, NY-NJ","Westchester County, New York","36119","35614",0
"330023","VASSAR BROTHERS MEDICAL CENTER","45 READE PLACE","POUGHKEEPSIE","NY","12601","33230","DUTCHESS","NY","36027","35644","New York-White Plains-Wayne, NY-NJ","Bergen County, New Jersey","34003","35614",0
"330049","NORTHERN DUTCHESS HOSPITAL","6511 SPRINGBROOK AVENUE","RHINEBECK","NY","12572","33230","DUTCHESS","NY","36027","35644","New York-White Plains-Wayne, NY-NJ","Bergen County, New Jersey","34003","35614",0
"330067","ST FRANCIS HOSPITAL","241 NORTH ROAD","POUGHKEEPSIE","NY","12601","33230","DUTCHESS","NY","36027","35644","New York-White Plains-Wayne, NY-NJ","Bergen County, New Jersey","34003","35614",0
"330023","VASSAR BROTHERS MEDICAL CENTER","45 READE PLACE","POUGHKEEPSIE","NY","12601","33230","DUTCHESS","NY","36027","35644","New York-White Plains-Wayne, NY-NJ","Hudson County, New Jersey","34017","35614",0
"330049","NORTHERN DUTCHESS HOSPITAL","6511 SPRINGBROOK AVENUE","RHINEBECK","NY","12572","33230","DUTCHESS","NY","36027","35644","New York-White Plains-Wayne, NY-NJ","Hudson County, New Jersey","34017","35614",0
"330067","ST FRANCIS HOSPITAL","241 NORTH ROAD","POUGHKEEPSIE","NY","12601","33230","DUTCHESS","NY","36027","35644","New York-White Plains-Wayne, NY-NJ","Hudson County, New Jersey","34017","35614",0
"330023","VASSAR BROTHERS MEDICAL CENTER","45 READE PLACE","POUGHKEEPSIE","NY","12601","33230","DUTCHESS","NY","36027","35644","New York-White Plains-Wayne, NY-NJ","Passaic County, New Jersey","34031","35614",0
"330049","NORTHERN DUTCHESS HOSPITAL","6511 SPRINGBROOK AVENUE","RHINEBECK","NY","12572","33230","DUTCHESS","NY","36027","35644","New York-White Plains-Wayne, NY-NJ","Passaic County, New Jersey","34031","35614",0
"330067","ST FRANCIS HOSPITAL","241 NORTH ROAD","POUGHKEEPSIE","NY","12601","33230","DUTCHESS","NY","36027","35644","New York-White Plains-Wayne, NY-NJ","Passaic County, New Jersey","34031","35614",0
"330023","VASSAR BROTHERS MEDICAL CENTER","45 READE PLACE","POUGHKEEPSIE","NY","12601","33230","DUTCHESS","NY","36027","35644","New York-White Plains-Wayne, NY-NJ","Bronx County, New York","36005","35614",0
"330049","NORTHERN DUTCHESS HOSPITAL","6511 SPRINGBROOK AVENUE","RHINEBECK","NY","12572","33230","DUTCHESS","NY","36027","35644","New York-White Plains-Wayne, NY-NJ","Bronx County, New York","36005","35614",0
"330067","ST FRANCIS HOSPITAL","241 NORTH ROAD","POUGHKEEPSIE","NY","12601","33230","DUTCHESS","NY","36027","35644","New York-White Plains-Wayne, NY-NJ","Bronx County, New York","36005","35614",0
"330023","VASSAR BROTHERS MEDICAL CENTER","45 READE PLACE","POUGHKEEPSIE","NY","12601","33230","DUTCHESS","NY","36027","35644","New York-White Plains-Wayne, NY-NJ","Kings County, New York","36047","35614",0
"330049","NORTHERN DUTCHESS HOSPITAL","6511 SPRINGBROOK AVENUE","RHINEBECK","NY","12572","33230","DUTCHESS","NY","36027","35644","New York-White Plains-Wayne, NY-NJ","Kings County, New York","36047","35614",0
"330067","ST FRANCIS HOSPITAL","241 NORTH ROAD","POUGHKEEPSIE","NY","12601","33230","DUTCHESS","NY","36027","35644","New York-White Plains-Wayne, NY-NJ","Kings County, New York","36047","35614",0
"330023","VASSAR BROTHERS MEDICAL CENTER","45 READE PLACE","POUGHKEEPSIE","NY","12601","33230","DUTCHESS","NY","36027","35644","New York-White Plains-Wayne, NY-NJ","New York County, New York","36061","35614",0
"330049","NORTHERN DUTCHESS HOSPITAL","6511 SPRINGBROOK AVENUE","RHINEBECK","NY","12572","33230","DUTCHESS","NY","36027","35644","New York-White Plains-Wayne, NY-NJ","New York County, New York","36061","35614",0
"330067","ST FRANCIS HOSPITAL","241 NORTH ROAD","POUGHKEEPSIE","NY","12601","33230","DUTCHESS","NY","36027","35644","New York-White Plains-Wayne, NY-NJ","New York County, New York","36061","35614",0
"330023","VASSAR BROTHERS MEDICAL CENTER","45 READE PLACE","POUGHKEEPSIE","NY","12601","33230","DUTCHESS","NY","36027","35644","New York-White Plains-Wayne, NY-NJ","Putnam County, New York","36079","20524",1
"330049","NORTHERN DUTCHESS HOSPITAL","6511 SPRINGBROOK AVENUE","RHINEBECK","NY","12572","33230","DUTCHESS","NY","36027","35644","New York-White Plains-Wayne, NY-NJ","Putnam County, New York","36079","20524",1
"330067","ST FRANCIS HOSPITAL","241 NORTH ROAD","POUGHKEEPSIE","NY","12601","33230","DUTCHESS","NY","36027","35644","New York-White Plains-Wayne, NY-NJ","Putnam County, New York","36079","20524",1
"330023","VASSAR BROTHERS MEDICAL CENTER","45 READE PLACE","POUGHKEEPSIE","NY","12601","33230","DUTCHESS","NY","36027","35644","New York-White Plains-Wayne, NY-NJ","Queens County, New York","36081","35614",0
"330049","NORTHERN DUTCHESS HOSPITAL","6511 SPRINGBROOK AVENUE","RHINEBECK","NY","12572","33230","DUTCHESS","NY","36027","35644","New York-White Plains-Wayne, NY-NJ","Queens County, New York","36081","35614",0
"330067","ST FRANCIS HOSPITAL","241 NORTH ROAD","POUGHKEEPSIE","NY","12601","33230","DUTCHESS","NY","36027","35644","New York-White Plains-Wayne, NY-NJ","Queens County, New York","36081","35614",0
"330023","VASSAR BROTHERS MEDICAL CENTER","45 READE PLACE","POUGHKEEPSIE","NY","12601","33230","DUTCHESS","NY","36027","35644","New York-White Plains-Wayne, NY-NJ","Richmond County, New York","36085","35614",0
"330049","NORTHERN DUTCHESS HOSPITAL","6511 SPRINGBROOK AVENUE","RHINEBECK","NY","12572","33230","DUTCHESS","NY","36027","35644","New York-White Plains-Wayne, NY-NJ","Richmond County, New York","36085","35614",0
"330067","ST FRANCIS HOSPITAL","241 NORTH ROAD","POUGHKEEPSIE","NY","12601","33230","DUTCHESS","NY","36027","35644","New York-White Plains-Wayne, NY-NJ","Richmond County, New York","36085","35614",0
"330023","VASSAR BROTHERS MEDICAL CENTER","45 READE PLACE","POUGHKEEPSIE","NY","12601","33230","DUTCHESS","NY","36027","35644","New York-White Plains-Wayne, NY-NJ","Rockland County, New York","36087","35614",0
"330049","NORTHERN DUTCHESS HOSPITAL","6511 SPRINGBROOK AVENUE","RHINEBECK","NY","12572","33230","DUTCHESS","NY","36027","35644","New York-White Plains-Wayne, NY-NJ","Rockland County, New York","36087","35614",0
"330067","ST FRANCIS HOSPITAL","241 NORTH ROAD","POUGHKEEPSIE","NY","12601","33230","DUTCHESS","NY","36027","35644","New York-White Plains-Wayne, NY-NJ","Rockland County, New York","36087","35614",0
"330023","VASSAR BROTHERS MEDICAL CENTER","45 READE PLACE","POUGHKEEPSIE","NY","12601","33230","DUTCHESS","NY","36027","35644","New York-White Plains-Wayne, NY-NJ","Westchester County, New York","36119","35614",0
"330049","NORTHERN DUTCHESS HOSPITAL","6511 SPRINGBROOK AVENUE","RHINEBECK","NY","12572","33230","DUTCHESS","NY","36027","35644","New York-White Plains-Wayne, NY-NJ","Westchester County, New York","36119","35614",0
"330067","ST FRANCIS HOSPITAL","241 NORTH ROAD","POUGHKEEPSIE","NY","12601","33230","DUTCHESS","NY","36027","35644","New York-White Plains-Wayne, NY-NJ","Westchester County, New York","36119","35614",0
"330126","ORANGE REGIONAL MEDICAL CENTER","707 EAST MAIN STREET","MIDDLETOWN","NY","10940","33540","ORANGE","NY","36071","35644","New York-White Plains-Wayne, NY-NJ","Bergen County, New Jersey","34003","35614",0
"330135","BON SECOURS COMMUNITY HOSPITAL","160 EAST MAIN STREET","PORT JERVIS","NY","12771","33540","ORANGE","NY","36071","35644","New York-White Plains-Wayne, NY-NJ","Bergen County, New Jersey","34003","35614",0
"330205","ST ANTHONY COMMUNITY HOSPITAL","15 - 19  MAPLE AVENUE","WARWICK","NY","10990","33540","ORANGE","NY","36071","35644","New York-White Plains-Wayne, NY-NJ","Bergen County, New Jersey","34003","35614",0
"330264","ST LUKE'S CORNWALL HOSPITAL","70 DUBOIS STREET","NEWBURGH","NY","12550","33540","ORANGE","NY","36071","35644","New York-White Plains-Wayne, NY-NJ","Bergen County, New Jersey","34003","35614",0
"330126","ORANGE REGIONAL MEDICAL CENTER","707 EAST MAIN STREET","MIDDLETOWN","NY","10940","33540","ORANGE","NY","36071","35644","New York-White Plains-Wayne, NY-NJ","Hudson County, New Jersey","34017","35614",0
"330135","BON SECOURS COMMUNITY HOSPITAL","160 EAST MAIN STREET","PORT JERVIS","NY","12771","33540","ORANGE","NY","36071","35644","New York-White Plains-Wayne, NY-NJ","Hudson County, New Jersey","34017","35614",0
"330205","ST ANTHONY COMMUNITY HOSPITAL","15 - 19  MAPLE AVENUE","WARWICK","NY","10990","33540","ORANGE","NY","36071","35644","New York-White Plains-Wayne, NY-NJ","Hudson County, New Jersey","34017","35614",0
"330264","ST LUKE'S CORNWALL HOSPITAL","70 DUBOIS STREET","NEWBURGH","NY","12550","33540","ORANGE","NY","36071","35644","New York-White Plains-Wayne, NY-NJ","Hudson County, New Jersey","34017","35614",0
"330126","ORANGE REGIONAL MEDICAL CENTER","707 EAST MAIN STREET","MIDDLETOWN","NY","10940","33540","ORANGE","NY","36071","35644","New York-White Plains-Wayne, NY-NJ","Passaic County, New Jersey","34031","35614",1
"330135","BON SECOURS COMMUNITY HOSPITAL","160 EAST MAIN STREET","PORT JERVIS","NY","12771","33540","ORANGE","NY","36071","35644","New York-White Plains-Wayne, NY-NJ","Passaic County, New Jersey","34031","35614",1
"330205","ST ANTHONY COMMUNITY HOSPITAL","15 - 19  MAPLE AVENUE","WARWICK","NY","10990","33540","ORANGE","NY","36071","35644","New York-White Plains-Wayne, NY-NJ","Passaic County, New Jersey","34031","35614",1
"330264","ST LUKE'S CORNWALL HOSPITAL","70 DUBOIS STREET","NEWBURGH","NY","12550","33540","ORANGE","NY","36071","35644","New York-White Plains-Wayne, NY-NJ","Passaic County, New Jersey","34031","35614",1
"330126","ORANGE REGIONAL MEDICAL CENTER","707 EAST MAIN STREET","MIDDLETOWN","NY","10940","33540","ORANGE","NY","36071","35644","New York-White Plains-Wayne, NY-NJ","Bronx County, New York","36005","35614",0
"330135","BON SECOURS COMMUNITY HOSPITAL","160 EAST MAIN STREET","PORT JERVIS","NY","12771","33540","ORANGE","NY","36071","35644","New York-White Plains-Wayne, NY-NJ","Bronx County, New York","36005","35614",0
"330205","ST ANTHONY COMMUNITY HOSPITAL","15 - 19  MAPLE AVENUE","WARWICK","NY","10990","33540","ORANGE","NY","36071","35644","New York-White Plains-Wayne, NY-NJ","Bronx County, New York","36005","35614",0
"330264","ST LUKE'S CORNWALL HOSPITAL","70 DUBOIS STREET","NEWBURGH","NY","12550","33540","ORANGE","NY","36071","35644","New York-White Plains-Wayne, NY-NJ","Bronx County, New York","36005","35614",0
"330126","ORANGE REGIONAL MEDICAL CENTER","707 EAST MAIN STREET","MIDDLETOWN","NY","10940","33540","ORANGE","NY","36071","35644","New York-White Plains-Wayne, NY-NJ","Kings County, New York","36047","35614",0
"330135","BON SECOURS COMMUNITY HOSPITAL","160 EAST MAIN STREET","PORT JERVIS","NY","12771","33540","ORANGE","NY","36071","35644","New York-White Plains-Wayne, NY-NJ","Kings County, New York","36047","35614",0
"330205","ST ANTHONY COMMUNITY HOSPITAL","15 - 19  MAPLE AVENUE","WARWICK","NY","10990","33540","ORANGE","NY","36071","35644","New York-White Plains-Wayne, NY-NJ","Kings County, New York","36047","35614",0
"330264","ST LUKE'S CORNWALL HOSPITAL","70 DUBOIS STREET","NEWBURGH","NY","12550","33540","ORANGE","NY","36071","35644","New York-White Plains-Wayne, NY-NJ","Kings County, New York","36047","35614",0
"330126","ORANGE REGIONAL MEDICAL CENTER","707 EAST MAIN STREET","MIDDLETOWN","NY","10940","33540","ORANGE","NY","36071","35644","New York-White Plains-Wayne, NY-NJ","New York County, New York","36061","35614",0
"330135","BON SECOURS COMMUNITY HOSPITAL","160 EAST MAIN STREET","PORT JERVIS","NY","12771","33540","ORANGE","NY","36071","35644","New York-White Plains-Wayne, NY-NJ","New York County, New York","36061","35614",0
"330205","ST ANTHONY COMMUNITY HOSPITAL","15 - 19  MAPLE AVENUE","WARWICK","NY","10990","33540","ORANGE","NY","36071","35644","New York-White Plains-Wayne, NY-NJ","New York County, New York","36061","35614",0
"330264","ST LUKE'S CORNWALL HOSPITAL","70 DUBOIS STREET","NEWBURGH","NY","12550","33540","ORANGE","NY","36071","35644","New York-White Plains-Wayne, NY-NJ","New York County, New York","36061","35614",0
"330126","ORANGE REGIONAL MEDICAL CENTER","707 EAST MAIN STREET","MIDDLETOWN","NY","10940","33540","ORANGE","NY","36071","35644","New York-White Plains-Wayne, NY-NJ","Putnam County, New York","36079","20524",1
"330135","BON SECOURS COMMUNITY HOSPITAL","160 EAST MAIN STREET","PORT JERVIS","NY","12771","33540","ORANGE","NY","36071","35644","New York-White Plains-Wayne, NY-NJ","Putnam County, New York","36079","20524",1
"330205","ST ANTHONY COMMUNITY HOSPITAL","15 - 19  MAPLE AVENUE","WARWICK","NY","10990","33540","ORANGE","NY","36071","35644","New York-White Plains-Wayne, NY-NJ","Putnam County, New York","36079","20524",1
"330264","ST LUKE'S CORNWALL HOSPITAL","70 DUBOIS STREET","NEWBURGH","NY","12550","33540","ORANGE","NY","36071","35644","New York-White Plains-Wayne, NY-NJ","Putnam County, New York","36079","20524",1
"330126","ORANGE REGIONAL MEDICAL CENTER","707 EAST MAIN STREET","MIDDLETOWN","NY","10940","33540","ORANGE","NY","36071","35644","New York-White Plains-Wayne, NY-NJ","Queens County, New York","36081","35614",0
"330135","BON SECOURS COMMUNITY HOSPITAL","160 EAST MAIN STREET","PORT JERVIS","NY","12771","33540","ORANGE","NY","36071","35644","New York-White Plains-Wayne, NY-NJ","Queens County, New York","36081","35614",0
"330205","ST ANTHONY COMMUNITY HOSPITAL","15 - 19  MAPLE AVENUE","WARWICK","NY","10990","33540","ORANGE","NY","36071","35644","New York-White Plains-Wayne, NY-NJ","Queens County, New York","36081","35614",0
"330264","ST LUKE'S CORNWALL HOSPITAL","70 DUBOIS STREET","NEWBURGH","NY","12550","33540","ORANGE","NY","36071","35644","New York-White Plains-Wayne, NY-NJ","Queens County, New York","36081","35614",0
"330126","ORANGE REGIONAL MEDICAL CENTER","707 EAST MAIN STREET","MIDDLETOWN","NY","10940","33540","ORANGE","NY","36071","35644","New York-White Plains-Wayne, NY-NJ","Richmond County, New York","36085","35614",0
"330135","BON SECOURS COMMUNITY HOSPITAL","160 EAST MAIN STREET","PORT JERVIS","NY","12771","33540","ORANGE","NY","36071","35644","New York-White Plains-Wayne, NY-NJ","Richmond County, New York","36085","35614",0
"330205","ST ANTHONY COMMUNITY HOSPITAL","15 - 19  MAPLE AVENUE","WARWICK","NY","10990","33540","ORANGE","NY","36071","35644","New York-White Plains-Wayne, NY-NJ","Richmond County, New York","36085","35614",0
"330264","ST LUKE'S CORNWALL HOSPITAL","70 DUBOIS STREET","NEWBURGH","NY","12550","33540","ORANGE","NY","36071","35644","New York-White Plains-Wayne, NY-NJ","Richmond County, New York","36085","35614",0
"330126","ORANGE REGIONAL MEDICAL CENTER","707 EAST MAIN STREET","MIDDLETOWN","NY","10940","33540","ORANGE","NY","36071","35644","New York-White Plains-Wayne, NY-NJ","Rockland County, New York","36087","35614",1
"330135","BON SECOURS COMMUNITY HOSPITAL","160 EAST MAIN STREET","PORT JERVIS","NY","12771","33540","ORANGE","NY","36071","35644","New York-White Plains-Wayne, NY-NJ","Rockland County, New York","36087","35614",1
"330205","ST ANTHONY COMMUNITY HOSPITAL","15 - 19  MAPLE AVENUE","WARWICK","NY","10990","33540","ORANGE","NY","36071","35644","New York-White Plains-Wayne, NY-NJ","Rockland County, New York","36087","35614",1
"330264","ST LUKE'S CORNWALL HOSPITAL","70 DUBOIS STREET","NEWBURGH","NY","12550","33540","ORANGE","NY","36071","35644","New York-White Plains-Wayne, NY-NJ","Rockland County, New York","36087","35614",1
"330126","ORANGE REGIONAL MEDICAL CENTER","707 EAST MAIN STREET","MIDDLETOWN","NY","10940","33540","ORANGE","NY","36071","35644","New York-White Plains-Wayne, NY-NJ","Westchester County, New York","36119","35614",0
"330135","BON SECOURS COMMUNITY HOSPITAL","160 EAST MAIN STREET","PORT JERVIS","NY","12771","33540","ORANGE","NY","36071","35644","New York-White Plains-Wayne, NY-NJ","Westchester County, New York","36119","35614",0
"330205","ST ANTHONY COMMUNITY HOSPITAL","15 - 19  MAPLE AVENUE","WARWICK","NY","10990","33540","ORANGE","NY","36071","35644","New York-White Plains-Wayne, NY-NJ","Westchester County, New York","36119","35614",0
"330264","ST LUKE'S CORNWALL HOSPITAL","70 DUBOIS STREET","NEWBURGH","NY","12550","33540","ORANGE","NY","36071","35644","New York-White Plains-Wayne, NY-NJ","Westchester County, New York","36119","35614",0
"330224","HEALTH ALLIANCE HOSPITAL MARY'S AVENUE CAMPUS","105 MARY'S AVENUE","KINGSTON","NY","12401","33740","ULSTER","NY","36111","39100","Poughkeepsie-Newburgh-Middletown, NY","Dutchess County, New York","36027","20524",1
"330224","HEALTH ALLIANCE HOSPITAL MARY'S AVENUE CAMPUS","105 MARY'S AVENUE","KINGSTON","NY","12401","33740","ULSTER","NY","36111","39100","Poughkeepsie-Newburgh-Middletown, NY","Orange County, New York","36071","35614",1
"340068","COLUMBUS REGIONAL HEALTHCARE SYSTEM","500 JEFFERSON ST","WHITEVILLE","NC","28472","34230","COLUMBUS","NC","37047","48900","Wilmington, NC","Brunswick County, North Carolina","37019","34820",1
"340068","COLUMBUS REGIONAL HEALTHCARE SYSTEM","500 JEFFERSON ST","WHITEVILLE","NC","28472","34230","COLUMBUS","NC","37047","48900","Wilmington, NC","New Hanover County, North Carolina","37129","same",0
"340068","COLUMBUS REGIONAL HEALTHCARE SYSTEM","500 JEFFERSON ST","WHITEVILLE","NC","28472","34230","COLUMBUS","NC","37047","48900","Wilmington, NC","Pender County, North Carolina","37141","same",1
"340042","ONSLOW MEMORIAL HOSPITAL","317 WESTERN BOULEVARD","JACKSONVILLE","NC","28540","34660","ONSLOW","NC","37133","48900","Wilmington, NC","Brunswick County, North Carolina","37019","34820",0
"340042","ONSLOW MEMORIAL HOSPITAL","317 WESTERN BOULEVARD","JACKSONVILLE","NC","28540","34660","ONSLOW","NC","37133","48900","Wilmington, NC","New Hanover County, North Carolina","37129","same",0
"340042","ONSLOW MEMORIAL HOSPITAL","317 WESTERN BOULEVARD","JACKSONVILLE","NC","28540","34660","ONSLOW","NC","37133","48900","Wilmington, NC","Pender County, North Carolina","37141","same",1
"420085","GRAND STRAND REGIONAL MEDICAL CENTER","809 82ND PARKWAY","MYRTLE BEACH","SC","29572","42250","HORRY","SC","45051","48900","Wilmington, NC","Brunswick County, North Carolina","37019","34820",1
"420085","GRAND STRAND REGIONAL MEDICAL CENTER","809 82ND PARKWAY","MYRTLE BEACH","SC","29572","42250","HORRY","SC","45051","48900","Wilmington, NC","New Hanover County, North Carolina","37129","same",0
"420085","GRAND STRAND REGIONAL MEDICAL CENTER","809 82ND PARKWAY","MYRTLE BEACH","SC","29572","42250","HORRY","SC","45051","48900","Wilmington, NC","Pender County, North Carolina","37141","same",0
"510062","BECKLEY ARH HOSPITAL","306 STANAFORD ROAD","BECKLEY","WV","25801","51400","RALEIGH","WV","54081","16620","Charleston, WV","Boone County, West Virginia","54005","same",1
"510070","RALEIGH GENERAL HOSPITAL","1710 HARPER ROAD","BECKLEY","WV","25801","51400","RALEIGH","WV","54081","16620","Charleston, WV","Boone County, West Virginia","54005","same",1
"510062","BECKLEY ARH HOSPITAL","306 STANAFORD ROAD","BECKLEY","WV","25801","51400","RALEIGH","WV","54081","16620","Charleston, WV","Clay County, West Virginia","54015","same",0
"510070","RALEIGH GENERAL HOSPITAL","1710 HARPER ROAD","BECKLEY","WV","25801","51400","RALEIGH","WV","54081","16620","Charleston, WV","Clay County, West Virginia","54015","same",0
"510062","BECKLEY ARH HOSPITAL","306 STANAFORD ROAD","BECKLEY","WV","25801","51400","RALEIGH","WV","54081","16620","Charleston, WV","Kanawha County, West Virginia","54039","same",1
"510070","RALEIGH GENERAL HOSPITAL","1710 HARPER ROAD","BECKLEY","WV","25801","51400","RALEIGH","WV","54081","16620","Charleston, WV","Kanawha County, West Virginia","54039","same",1
"510062","BECKLEY ARH HOSPITAL","306 STANAFORD ROAD","BECKLEY","WV","25801","51400","RALEIGH","WV","54081","16620","Charleston, WV","Lincoln County, West Virginia","54043","26580",0
"510070","RALEIGH GENERAL HOSPITAL","1710 HARPER ROAD","BECKLEY","WV","25801","51400","RALEIGH","WV","54081","16620","Charleston, WV","Lincoln County, West Virginia","54043","26580",0
"510062","BECKLEY ARH HOSPITAL","306 STANAFORD ROAD","BECKLEY","WV","25801","51400","RALEIGH","WV","54081","16620","Charleston, WV","Putnam County, West Virginia","54079","26580",0
"510070","RALEIGH GENERAL HOSPITAL","1710 HARPER ROAD","BECKLEY","WV","25801","51400","RALEIGH","WV","54081","16620","Charleston, WV","Putnam County, West Virginia","54079","26580",0
